{
"type": "FeatureCollection",
"name": "kalsel_facilities",
"crs": { "type": "name", "properties": { "name": "urn:ogc:def:crs:OGC:1.3:CRS84" } },
"features": [
{ "type": "Feature", "properties": { "osm_id": 1805689219.0, "name": "Pustu Handil Suruk", "amenity": "hospital", "healthcare": null, "source_layer": "node" }, "geometry": { "type": "Point", "coordinates": [ 114.6148213, -3.5465337 ] } },
{ "type": "Feature", "properties": { "osm_id": 1805714685.0, "name": "Polindes Batilai", "amenity": "hospital", "healthcare": null, "source_layer": "node" }, "geometry": { "type": "Point", "coordinates": [ 114.7007567, -3.833116 ] } },
{ "type": "Feature", "properties": { "osm_id": 1805714686.0, "name": "Polindes", "amenity": "hospital", "healthcare": null, "source_layer": "node" }, "geometry": { "type": "Point", "coordinates": [ 114.6272385, -3.672333 ] } },
{ "type": "Feature", "properties": { "osm_id": 1805714687.0, "name": "Polindes", "amenity": "hospital", "healthcare": null, "source_layer": "node" }, "geometry": { "type": "Point", "coordinates": [ 114.7680436, -3.9496757 ] } },
{ "type": "Feature", "properties": { "osm_id": 1805714697.0, "name": "Poskes", "amenity": "hospital", "healthcare": null, "source_layer": "node" }, "geometry": { "type": "Point", "coordinates": [ 114.6789405, -4.0557598 ] } },
{ "type": "Feature", "properties": { "osm_id": 1805714699.0, "name": "Puskesmas Batalang", "amenity": "clinic", "healthcare": "clinic", "source_layer": "node" }, "geometry": { "type": "Point", "coordinates": [ 114.923623, -3.9182834 ] } },
{ "type": "Feature", "properties": { "osm_id": 1805714700.0, "name": "Puskesmas Batu Ampar", "amenity": "hospital", "healthcare": null, "source_layer": "node" }, "geometry": { "type": "Point", "coordinates": [ 114.8234351, -3.8844019 ] } },
{ "type": "Feature", "properties": { "osm_id": 1805714701.0, "name": "Puskesmas Jorong", "amenity": "clinic", "healthcare": "clinic", "source_layer": "node" }, "geometry": { "type": "Point", "coordinates": [ 114.9252731, -3.9746866 ] } },
{ "type": "Feature", "properties": { "osm_id": 1805714705.0, "name": "Puskesmas Takisung", "amenity": "hospital", "healthcare": null, "source_layer": "node" }, "geometry": { "type": "Point", "coordinates": [ 114.6602943, -3.8776514 ] } },
{ "type": "Feature", "properties": { "osm_id": 1805714707.0, "name": "Puskesmas Takisung", "amenity": "hospital", "healthcare": null, "source_layer": "node" }, "geometry": { "type": "Point", "coordinates": [ 114.7205618, -3.9609967 ] } },
{ "type": "Feature", "properties": { "osm_id": 1805714710.0, "name": "Puskesmas Trans 200", "amenity": "hospital", "healthcare": null, "source_layer": "node" }, "geometry": { "type": "Point", "coordinates": [ 114.9733825, -3.9777643 ] } },
{ "type": "Feature", "properties": { "osm_id": 1805714719.0, "name": "Puskesmas Kurau", "amenity": "hospital", "healthcare": null, "source_layer": "node" }, "geometry": { "type": "Point", "coordinates": [ 114.6192349, -3.5926725 ] } },
{ "type": "Feature", "properties": { "osm_id": 1805714720.0, "name": "Pustu Asam-Asam", "amenity": "hospital", "healthcare": null, "source_layer": "node" }, "geometry": { "type": "Point", "coordinates": [ 115.0809669, -3.930471 ] } },
{ "type": "Feature", "properties": { "osm_id": 1805714722.0, "name": "Pustu Gunung Makmur", "amenity": "clinic", "healthcare": null, "source_layer": "node" }, "geometry": { "type": "Point", "coordinates": [ 114.6465837, -3.8861568 ] } },
{ "type": "Feature", "properties": { "osm_id": 1805714723.0, "name": "Pustu Panggung Baru", "amenity": "hospital", "healthcare": null, "source_layer": "node" }, "geometry": { "type": "Point", "coordinates": [ 114.7280847, -3.7413528 ] } },
{ "type": "Feature", "properties": { "osm_id": 1805714724.0, "name": "Pustu Pantai Linuh", "amenity": "hospital", "healthcare": null, "source_layer": "node" }, "geometry": { "type": "Point", "coordinates": [ 114.8461999, -3.848158 ] } },
{ "type": "Feature", "properties": { "osm_id": 1805714725.0, "name": "Pustu Takisunfg", "amenity": "hospital", "healthcare": null, "source_layer": "node" }, "geometry": { "type": "Point", "coordinates": [ 114.6105347, -3.8706351 ] } },
{ "type": "Feature", "properties": { "osm_id": 1805714726.0, "name": "Pustu Tungkaran", "amenity": "hospital", "healthcare": null, "source_layer": "node" }, "geometry": { "type": "Point", "coordinates": [ 114.6917931, -3.7623321 ] } },
{ "type": "Feature", "properties": { "osm_id": 1805714727.0, "name": "Pustu Ujung Batu", "amenity": "hospital", "healthcare": null, "source_layer": "node" }, "geometry": { "type": "Point", "coordinates": [ 114.6942398, -3.7465473 ] } },
{ "type": "Feature", "properties": { "osm_id": 1805714728.0, "name": "Pustu", "amenity": "hospital", "healthcare": null, "source_layer": "node" }, "geometry": { "type": "Point", "coordinates": [ 114.8061774, -3.6237572 ] } },
{ "type": "Feature", "properties": { "osm_id": 1805714729.0, "name": "Pustu", "amenity": "hospital", "healthcare": null, "source_layer": "node" }, "geometry": { "type": "Point", "coordinates": [ 114.8507821, -3.6854268 ] } },
{ "type": "Feature", "properties": { "osm_id": 2528862499.0, "name": "RSUD Pembalah Batung", "amenity": "hospital", "healthcare": "hospital", "source_layer": "node" }, "geometry": { "type": "Point", "coordinates": [ 115.2548421, -2.4175853 ] } },
{ "type": "Feature", "properties": { "osm_id": 2541463532.0, "name": "Puskesmas Banua Lawas", "amenity": "hospital", "healthcare": null, "source_layer": "node" }, "geometry": { "type": "Point", "coordinates": [ 115.2770991, -2.3209739 ] } },
{ "type": "Feature", "properties": { "osm_id": 3164269982.0, "name": "Puskesmas Sungai Tiung", "amenity": "clinic", "healthcare": null, "source_layer": "node" }, "geometry": { "type": "Point", "coordinates": [ 114.8389674, -3.5016287 ] } },
{ "type": "Feature", "properties": { "osm_id": 3166755866.0, "name": "Puskesmas Loktabat Utara", "amenity": "clinic", "healthcare": "clinic", "source_layer": "node" }, "geometry": { "type": "Point", "coordinates": [ 114.8183913, -3.4305801 ] } },
{ "type": "Feature", "properties": { "osm_id": 3178229099.0, "name": "RS Pelita Insani", "amenity": "hospital", "healthcare": "hospital", "source_layer": "node" }, "geometry": { "type": "Point", "coordinates": [ 114.8515705, -3.4235825 ] } },
{ "type": "Feature", "properties": { "osm_id": 3280635065.0, "name": "Poskesdes Gunung Besar", "amenity": "clinic", "healthcare": null, "source_layer": "node" }, "geometry": { "type": "Point", "coordinates": [ 116.0077766, -3.3672757 ] } },
{ "type": "Feature", "properties": { "osm_id": 3285383091.0, "name": "Puskesmas Batulicin 1", "amenity": "clinic", "healthcare": null, "source_layer": "node" }, "geometry": { "type": "Point", "coordinates": [ 115.9306098, -3.3428348 ] } },
{ "type": "Feature", "properties": { "osm_id": 3292346095.0, "name": "Puskesmas Batulicin", "amenity": "clinic", "healthcare": null, "source_layer": "node" }, "geometry": { "type": "Point", "coordinates": [ 116.0043826, -3.4485993 ] } },
{ "type": "Feature", "properties": { "osm_id": 3298163325.0, "name": "Poskesdes Betung", "amenity": "clinic", "healthcare": null, "source_layer": "node" }, "geometry": { "type": "Point", "coordinates": [ 116.2144444, -3.4421407 ] } },
{ "type": "Feature", "properties": { "osm_id": 3298183086.0, "name": "RSUD Kotabaru", "amenity": "hospital", "healthcare": "hospital", "source_layer": "node" }, "geometry": { "type": "Point", "coordinates": [ 116.2144342, -3.2520185 ] } },
{ "type": "Feature", "properties": { "osm_id": 3304166559.0, "name": "RSUD dr. Andi Abdurrahman Noor", "amenity": "hospital", "healthcare": null, "source_layer": "node" }, "geometry": { "type": "Point", "coordinates": [ 115.9585067, -3.5220511 ] } },
{ "type": "Feature", "properties": { "osm_id": 3306022165.0, "name": "Puskesmas Sebamban 2", "amenity": "clinic", "healthcare": null, "source_layer": "node" }, "geometry": { "type": "Point", "coordinates": [ 115.604231, -3.714697 ] } },
{ "type": "Feature", "properties": { "osm_id": 3327859780.0, "name": "Puskesmas Kintap", "amenity": "clinic", "healthcare": "clinic", "source_layer": "node" }, "geometry": { "type": "Point", "coordinates": [ 115.2076725, -3.8646289 ] } },
{ "type": "Feature", "properties": { "osm_id": 3559317951.0, "name": "Poskesdes Pangi", "amenity": "clinic", "healthcare": null, "source_layer": "node" }, "geometry": { "type": "Point", "coordinates": [ 115.4293319, -2.0737438 ] } },
{ "type": "Feature", "properties": { "osm_id": 3610260145.0, "name": "Puskesmas Dalam Pagar", "amenity": "clinic", "healthcare": "clinic", "source_layer": "node" }, "geometry": { "type": "Point", "coordinates": [ 114.8413053, -3.3887278 ] } },
{ "type": "Feature", "properties": { "osm_id": 3612249028.0, "name": "Puskesmas Sungai Jingah", "amenity": "clinic", "healthcare": "clinic", "source_layer": "node" }, "geometry": { "type": "Point", "coordinates": [ 114.6033422, -3.3087605 ] } },
{ "type": "Feature", "properties": { "osm_id": 3646971058.0, "name": "Puskesmas Mabuun", "amenity": "clinic", "healthcare": null, "source_layer": "node" }, "geometry": { "type": "Point", "coordinates": [ 115.4149777, -2.1708847 ] } },
{ "type": "Feature", "properties": { "osm_id": 3938979543.0, "name": "Puskesmas Pagatan", "amenity": "clinic", "healthcare": "clinic", "source_layer": "node" }, "geometry": { "type": "Point", "coordinates": [ 115.9273662, -3.6081471 ] } },
{ "type": "Feature", "properties": { "osm_id": 4229591586.0, "name": "Puskesmas Nagara", "amenity": "clinic", "healthcare": null, "source_layer": "node" }, "geometry": { "type": "Point", "coordinates": [ 115.1072421, -2.6285889 ] } },
{ "type": "Feature", "properties": { "osm_id": 4229591587.0, "name": "RSUD Daha Sejahtera", "amenity": "hospital", "healthcare": null, "source_layer": "node" }, "geometry": { "type": "Point", "coordinates": [ 115.118679, -2.6360242 ] } },
{ "type": "Feature", "properties": { "osm_id": 4229649122.0, "name": "Puskesmas Kandangan", "amenity": "clinic", "healthcare": null, "source_layer": "node" }, "geometry": { "type": "Point", "coordinates": [ 115.2650314, -2.7763905 ] } },
{ "type": "Feature", "properties": { "osm_id": 4229649123.0, "name": "Puskesmas Pembantu Bangkau", "amenity": "clinic", "healthcare": null, "source_layer": "node" }, "geometry": { "type": "Point", "coordinates": [ 115.1983275, -2.6810255 ] } },
{ "type": "Feature", "properties": { "osm_id": 4428325296.0, "name": "dr. Suka Dwi Rahardja, Sp.PA", "amenity": "doctors", "healthcare": null, "source_layer": "node" }, "geometry": { "type": "Point", "coordinates": [ 114.8367126, -3.4527694 ] } },
{ "type": "Feature", "properties": { "osm_id": 4429998289.0, "name": "RSB AINUN", "amenity": "clinic", "healthcare": null, "source_layer": "node" }, "geometry": { "type": "Point", "coordinates": [ 114.7600718, -3.8078783 ] } },
{ "type": "Feature", "properties": { "osm_id": 4733442856.0, "name": "Poskesdes Badalungga", "amenity": "clinic", "healthcare": null, "source_layer": "node" }, "geometry": { "type": "Point", "coordinates": [ 115.5450476, -2.4111451 ] } },
{ "type": "Feature", "properties": { "osm_id": 4765879346.0, "name": "Poskesdes Batang Banyu", "amenity": "clinic", "healthcare": null, "source_layer": "node" }, "geometry": { "type": "Point", "coordinates": [ 115.2714412, -2.3531769 ] } },
{ "type": "Feature", "properties": { "osm_id": 4766205743.0, "name": "Poskesdes Keramat", "amenity": "clinic", "healthcare": null, "source_layer": "node" }, "geometry": { "type": "Point", "coordinates": [ 115.2257089, -2.4570715 ] } },
{ "type": "Feature", "properties": { "osm_id": 4768959846.0, "name": "Poskesdes Paran", "amenity": "clinic", "healthcare": null, "source_layer": "node" }, "geometry": { "type": "Point", "coordinates": [ 115.5076441, -2.3089565 ] } },
{ "type": "Feature", "properties": { "osm_id": 4769013070.0, "name": "Puskesmas Halong", "amenity": "clinic", "healthcare": null, "source_layer": "node" }, "geometry": { "type": "Point", "coordinates": [ 115.655277, -2.2636756 ] } },
{ "type": "Feature", "properties": { "osm_id": 4770471294.0, "name": "Puskesmas Danau Panggang", "amenity": "clinic", "healthcare": null, "source_layer": "node" }, "geometry": { "type": "Point", "coordinates": [ 115.1051479, -2.4638464 ] } },
{ "type": "Feature", "properties": { "osm_id": 4770573517.0, "name": "Puskesmas Pembantu Sungai Luang Hilir", "amenity": "clinic", "healthcare": null, "source_layer": "node" }, "geometry": { "type": "Point", "coordinates": [ 115.120012, -2.51 ] } },
{ "type": "Feature", "properties": { "osm_id": 4998866648.0, "name": "Poskesdes Kambitin Raya", "amenity": "clinic", "healthcare": null, "source_layer": "node" }, "geometry": { "type": "Point", "coordinates": [ 115.3716896, -2.0743922 ] } },
{ "type": "Feature", "properties": { "osm_id": 5005217239.0, "name": "Puskesmas Angkinang", "amenity": "clinic", "healthcare": null, "source_layer": "node" }, "geometry": { "type": "Point", "coordinates": [ 115.2934778, -2.7294183 ] } },
{ "type": "Feature", "properties": { "osm_id": 5021278655.0, "name": "UPT Puskesmas Sungai Tabuk 3", "amenity": "clinic", "healthcare": "clinic", "source_layer": "node" }, "geometry": { "type": "Point", "coordinates": [ 114.632442, -3.3135147 ] } },
{ "type": "Feature", "properties": { "osm_id": 5021278671.0, "name": "Puskesmas Pembantu Gardu Mekar Indah", "amenity": "clinic", "healthcare": "clinic", "source_layer": "node" }, "geometry": { "type": "Point", "coordinates": [ 114.6266592, -3.3204968 ] } },
{ "type": "Feature", "properties": { "osm_id": 5154841223.0, "name": "Rumah Dokter Silahuddin", "amenity": "doctors", "healthcare": "doctor", "source_layer": "node" }, "geometry": { "type": "Point", "coordinates": [ 115.1540015, -2.9258437 ] } },
{ "type": "Feature", "properties": { "osm_id": 5172232321.0, "name": "Puskesmas Baruh Jaya", "amenity": "doctors", "healthcare": null, "source_layer": "node" }, "geometry": { "type": "Point", "coordinates": [ 115.0838521, -2.6342181 ] } },
{ "type": "Feature", "properties": { "osm_id": 5548115614.0, "name": "Poskesdes Hauwai", "amenity": "clinic", "healthcare": null, "source_layer": "node" }, "geometry": { "type": "Point", "coordinates": [ 115.6728561, -2.2443784 ] } },
{ "type": "Feature", "properties": { "osm_id": 6071013085.0, "name": "RS. TNI AU Syamsudin Noor", "amenity": "hospital", "healthcare": null, "source_layer": "node" }, "geometry": { "type": "Point", "coordinates": [ 114.7443104, -3.4447362 ] } },
{ "type": "Feature", "properties": { "osm_id": 6612716203.0, "name": "Puskesmas", "amenity": "clinic", "healthcare": "clinic", "source_layer": "node" }, "geometry": { "type": "Point", "coordinates": [ 114.5874277, -3.3234373 ] } },
{ "type": "Feature", "properties": { "osm_id": 6697394360.0, "name": "Posyandu", "amenity": "clinic", "healthcare": "clinic", "source_layer": "node" }, "geometry": { "type": "Point", "coordinates": [ 114.5887714, -3.3152351 ] } },
{ "type": "Feature", "properties": { "osm_id": 6697419508.0, "name": null, "amenity": "doctors", "healthcare": "midwife", "source_layer": "node" }, "geometry": { "type": "Point", "coordinates": [ 114.5829877, -3.3282917 ] } },
{ "type": "Feature", "properties": { "osm_id": 6697419509.0, "name": "Klinik Hafisa Dahlia", "amenity": "clinic", "healthcare": "doctor+pharmacy", "source_layer": "node" }, "geometry": { "type": "Point", "coordinates": [ 114.5828322, -3.3276498 ] } },
{ "type": "Feature", "properties": { "osm_id": 6702037853.0, "name": "Klinik Kinibalu", "amenity": "clinic", "healthcare": "clinic", "source_layer": "node" }, "geometry": { "type": "Point", "coordinates": [ 114.5842307, -3.3177588 ] } },
{ "type": "Feature", "properties": { "osm_id": 6776387672.0, "name": "Balai Pengobatan Advent", "amenity": "clinic", "healthcare": "clinic", "source_layer": "node" }, "geometry": { "type": "Point", "coordinates": [ 114.5743362, -3.3222028 ] } },
{ "type": "Feature", "properties": { "osm_id": 7161494192.0, "name": "Klinik Cahaya Imani", "amenity": "clinic", "healthcare": null, "source_layer": "node" }, "geometry": { "type": "Point", "coordinates": [ 115.2720349, -2.7786001 ] } },
{ "type": "Feature", "properties": { "osm_id": 7227739112.0, "name": "Darplastic", "amenity": "clinic", "healthcare": "clinic", "source_layer": "node" }, "geometry": { "type": "Point", "coordinates": [ 114.6083141, -3.3009765 ] } },
{ "type": "Feature", "properties": { "osm_id": 7227739113.0, "name": "Matta", "amenity": "clinic", "healthcare": "clinic", "source_layer": "node" }, "geometry": { "type": "Point", "coordinates": [ 114.6082735, -3.3009273 ] } },
{ "type": "Feature", "properties": { "osm_id": 7353571531.0, "name": null, "amenity": "doctors", "healthcare": "doctor", "source_layer": "node" }, "geometry": { "type": "Point", "coordinates": [ 114.5977328, -3.3266733 ] } },
{ "type": "Feature", "properties": { "osm_id": 8491745287.0, "name": "Klinik Utama Rawat Jalan Sutoyo Medika", "amenity": "clinic", "healthcare": "clinic", "source_layer": "node" }, "geometry": { "type": "Point", "coordinates": [ 114.5779774, -3.3214301 ] } },
{ "type": "Feature", "properties": { "osm_id": 8838727860.0, "name": "Klinik Praktama Asri", "amenity": "clinic", "healthcare": "clinic", "source_layer": "node" }, "geometry": { "type": "Point", "coordinates": [ 114.8057812, -3.4482413 ] } },
{ "type": "Feature", "properties": { "osm_id": 8948722695.0, "name": "Eks RSJ Tamban", "amenity": "hospital", "healthcare": null, "source_layer": "node" }, "geometry": { "type": "Point", "coordinates": [ 114.4973525, -3.3386635 ] } },
{ "type": "Feature", "properties": { "osm_id": 9023149189.0, "name": "LMMC", "amenity": "clinic", "healthcare": "clinic", "source_layer": "node" }, "geometry": { "type": "Point", "coordinates": [ 114.8443635, -3.4436263 ] } },
{ "type": "Feature", "properties": { "osm_id": 9023149192.0, "name": "RS Mawar", "amenity": "hospital", "healthcare": "hospital", "source_layer": "node" }, "geometry": { "type": "Point", "coordinates": [ 114.8380571, -3.4387948 ] } },
{ "type": "Feature", "properties": { "osm_id": 9041116522.0, "name": "RSU Syifa Medika", "amenity": "hospital", "healthcare": "hospital", "source_layer": "node" }, "geometry": { "type": "Point", "coordinates": [ 114.8165312, -3.4583279 ] } },
{ "type": "Feature", "properties": { "osm_id": 9050193988.0, "name": "RSU Al-Mansyur Medika", "amenity": "hospital", "healthcare": "hospital", "source_layer": "node" }, "geometry": { "type": "Point", "coordinates": [ 114.8480654, -3.4418648 ] } },
{ "type": "Feature", "properties": { "osm_id": 9619867242.0, "name": "RSUD Hadji Boejasin", "amenity": "hospital", "healthcare": "hospital", "source_layer": "node" }, "geometry": { "type": "Point", "coordinates": [ 114.7865236, -3.8279905 ] } },
{ "type": "Feature", "properties": { "osm_id": 9840186844.0, "name": "Dr Edi Hartoyo Sp A", "amenity": "doctors", "healthcare": "doctor", "source_layer": "node" }, "geometry": { "type": "Point", "coordinates": [ 114.6102028, -3.334529 ] } },
{ "type": "Feature", "properties": { "osm_id": 9840424343.0, "name": "Dokter Gigi Buyung Maglenda", "amenity": "doctors", "healthcare": "doctor", "source_layer": "node" }, "geometry": { "type": "Point", "coordinates": [ 114.6179429, -3.3298525 ] } },
{ "type": "Feature", "properties": { "osm_id": 9842933236.0, "name": "Amanda Estetika", "amenity": "doctors", "healthcare": "doctor", "source_layer": "node" }, "geometry": { "type": "Point", "coordinates": [ 114.598712, -3.3260067 ] } },
{ "type": "Feature", "properties": { "osm_id": 9843315760.0, "name": "Praktek Dokter Dr. Iskandar Halim Sp.A", "amenity": "doctors", "healthcare": "doctor", "source_layer": "node" }, "geometry": { "type": "Point", "coordinates": [ 114.5976841, -3.3134051 ] } },
{ "type": "Feature", "properties": { "osm_id": 12387516782.0, "name": "Puskesmas Kayutangi", "amenity": "clinic", "healthcare": null, "source_layer": "node" }, "geometry": { "type": "Point", "coordinates": [ 114.5951097, -3.2911273 ] } },
{ "type": "Feature", "properties": { "osm_id": 12455972155.0, "name": "Poskesdes Desa Tamiang", "amenity": "hospital", "healthcare": "hospital", "source_layer": "node" }, "geometry": { "type": "Point", "coordinates": [ 116.2961199, -2.4314459 ] } },
{ "type": "Feature", "properties": { "osm_id": 12479859084.0, "name": "Puskesmas Margasari", "amenity": "clinic", "healthcare": null, "source_layer": "node" }, "geometry": { "type": "Point", "coordinates": [ 114.9292673, -2.8753288 ] } },
{ "type": "Feature", "properties": { "osm_id": 12480067102.0, "name": "Poskesdes Nateh", "amenity": "clinic", "healthcare": null, "source_layer": "node" }, "geometry": { "type": "Point", "coordinates": [ 115.5584411, -2.52325 ] } },
{ "type": "Feature", "properties": { "osm_id": 12712311179.0, "name": "Rumah Sakit Umum Nirwana", "amenity": "hospital", "healthcare": "hospital", "source_layer": "node" }, "geometry": { "type": "Point", "coordinates": [ 114.8404189, -3.4391909 ] } },
{ "type": "Feature", "properties": { "osm_id": 13508084439.0, "name": null, "amenity": "hospital", "healthcare": "hospital", "source_layer": "node" }, "geometry": { "type": "Point", "coordinates": [ 115.872242, -2.9527354 ] } },
{ "type": "Feature", "properties": { "osm_id": 13508131561.0, "name": null, "amenity": "hospital", "healthcare": "hospital", "source_layer": "node" }, "geometry": { "type": "Point", "coordinates": [ 115.8695124, -2.9506456 ] } },
{ "type": "Feature", "properties": { "osm_id": 14001684201.0, "name": "Rumah Sakit Siloam Banjarmasin", "amenity": "hospital", "healthcare": null, "source_layer": "node" }, "geometry": { "type": "Point", "coordinates": [ 114.6049013, -3.3260434 ] } }
]
}
