{
"type": "FeatureCollection",
"name": "kalsel_facilities_complete",
"crs": { "type": "name", "properties": { "name": "urn:ogc:def:crs:OGC:1.3:CRS84" } },
"features": [
{ "type": "Feature", "properties": { "osm_id": 9800077, "osm_type": "relation", "name": null, "amenity": "clinic", "healthcare": "clinic" }, "geometry": { "type": "Point", "coordinates": [ 114.818394226609811, -3.430567438209791 ] } },
{ "type": "Feature", "properties": { "osm_id": 9101918, "osm_type": "relation", "name": "Kompleks Puskesmas Desa Tanjung", "amenity": "clinic", "healthcare": null }, "geometry": { "type": "Point", "coordinates": [ 114.881617960217554, -3.711833598950044 ] } },
{ "type": "Feature", "properties": { "osm_id": 7892155, "osm_type": "relation", "name": "Puskesmas Alalak Selatan", "amenity": "clinic", "healthcare": "clinic" }, "geometry": { "type": "Point", "coordinates": [ 114.571369392953827, -3.286503694075022 ] } },
{ "type": "Feature", "properties": { "osm_id": 1271037862, "osm_type": "way", "name": null, "amenity": "clinic", "healthcare": null }, "geometry": { "type": "Point", "coordinates": [ 114.941117436702953, -2.879922675994957 ] } },
{ "type": "Feature", "properties": { "osm_id": 1271038056, "osm_type": "way", "name": null, "amenity": "clinic", "healthcare": null }, "geometry": { "type": "Point", "coordinates": [ 114.934306680822033, -2.879828048289704 ] } },
{ "type": "Feature", "properties": { "osm_id": 1273254091, "osm_type": "way", "name": null, "amenity": "hospital", "healthcare": "hospital" }, "geometry": { "type": "Point", "coordinates": [ 114.983604452240684, -2.867193135179221 ] } },
{ "type": "Feature", "properties": { "osm_id": 1283507592, "osm_type": "way", "name": "Klinik", "amenity": "clinic", "healthcare": null }, "geometry": { "type": "Point", "coordinates": [ 114.941464649989868, -2.88372495000532 ] } },
{ "type": "Feature", "properties": { "osm_id": 1298961733, "osm_type": "way", "name": "Puskesmas Pembantu Puntik Luar", "amenity": "clinic", "healthcare": null }, "geometry": { "type": "Point", "coordinates": [ 114.667536641208272, -3.229564419652637 ] } },
{ "type": "Feature", "properties": { "osm_id": 1302970341, "osm_type": "way", "name": "Puskesmas Sungai Durian", "amenity": "clinic", "healthcare": null }, "geometry": { "type": "Point", "coordinates": [ 116.164876952693731, -2.514237430337708 ] } },
{ "type": "Feature", "properties": { "osm_id": 1302986514, "osm_type": "way", "name": "Puskesmas Pembantu Pamukan Indah", "amenity": "clinic", "healthcare": null }, "geometry": { "type": "Point", "coordinates": [ 116.258501203291146, -2.389008202107484 ] } },
{ "type": "Feature", "properties": { "osm_id": 1302986515, "osm_type": "way", "name": "Puskesmas Bakau", "amenity": "clinic", "healthcare": null }, "geometry": { "type": "Point", "coordinates": [ 116.238030219034414, -2.410278721985907 ] } },
{ "type": "Feature", "properties": { "osm_id": 1330567602, "osm_type": "way", "name": "Rumah Sakit Marina Permata", "amenity": "hospital", "healthcare": "hospital" }, "geometry": { "type": "Point", "coordinates": [ 115.986272512404184, -3.397466598575019 ] } },
{ "type": "Feature", "properties": { "osm_id": 1349159647, "osm_type": "way", "name": "Puskesmas Tapin Utara", "amenity": "clinic", "healthcare": null }, "geometry": { "type": "Point", "coordinates": [ 115.143676148705325, -2.932633727375526 ] } },
{ "type": "Feature", "properties": { "osm_id": 1349159638, "osm_type": "way", "name": "RSUD Datu Sanggul", "amenity": "hospital", "healthcare": null }, "geometry": { "type": "Point", "coordinates": [ 115.180467775464138, -2.940309273292139 ] } },
{ "type": "Feature", "properties": { "osm_id": 717858341, "osm_type": "way", "name": "Rumah Sakit Umum Suaka Insan", "amenity": "hospital", "healthcare": "hospital" }, "geometry": { "type": "Point", "coordinates": [ 114.58015686113076, -3.312473434571004 ] } },
{ "type": "Feature", "properties": { "osm_id": 720933355, "osm_type": "way", "name": "RS Umum Ciputra Mitra Hospital", "amenity": "hospital", "healthcare": "hospital" }, "geometry": { "type": "Point", "coordinates": [ 114.629829519616123, -3.3614460293392 ] } },
{ "type": "Feature", "properties": { "osm_id": 788772803, "osm_type": "way", "name": "Rumah Sakit Pembalah Batung", "amenity": "hospital", "healthcare": "hospital" }, "geometry": { "type": "Point", "coordinates": [ 115.254702641550722, -2.417352026258028 ] } },
{ "type": "Feature", "properties": { "osm_id": 654625770, "osm_type": "way", "name": "Pos Bersalin Desa Tanjung", "amenity": "clinic", "healthcare": null }, "geometry": { "type": "Point", "coordinates": [ 114.859448582384587, -3.709999945998747 ] } },
{ "type": "Feature", "properties": { "osm_id": 654640260, "osm_type": "way", "name": "Bidan Desa Ketapang", "amenity": "doctors", "healthcare": null }, "geometry": { "type": "Point", "coordinates": [ 114.806937803434181, -3.789815917942348 ] } },
{ "type": "Feature", "properties": { "osm_id": 1039614596, "osm_type": "way", "name": "Puskesmas Pembantu Tatah Layap", "amenity": "clinic", "healthcare": null }, "geometry": { "type": "Point", "coordinates": [ 114.580922199996721, -3.39590999999959 ] } },
{ "type": "Feature", "properties": { "osm_id": 1074580596, "osm_type": "way", "name": "Puskesmas Telaga Bauntung", "amenity": "clinic", "healthcare": null }, "geometry": { "type": "Point", "coordinates": [ 115.207480499999548, -3.069207400009617 ] } },
{ "type": "Feature", "properties": { "osm_id": 1087730085, "osm_type": "way", "name": "RS Sumber Jaya Sehat d.h Pahlawan Medika Center", "amenity": "hospital", "healthcare": "hospital" }, "geometry": { "type": "Point", "coordinates": [ 115.264629899968668, -2.781199827040973 ] } },
{ "type": "Feature", "properties": { "osm_id": 1124899664, "osm_type": "way", "name": "Poskesdes Tanipah", "amenity": "clinic", "healthcare": null }, "geometry": { "type": "Point", "coordinates": [ 114.66905804999756, -3.228464199999188 ] } },
{ "type": "Feature", "properties": { "osm_id": 1157839428, "osm_type": "way", "name": "Puskesmas Pembantu Malintang", "amenity": "clinic", "healthcare": null }, "geometry": { "type": "Point", "coordinates": [ 114.622733156250618, -3.431728571428528 ] } },
{ "type": "Feature", "properties": { "osm_id": 1157839436, "osm_type": "way", "name": "Puskesmas Beruntung Baru", "amenity": "clinic", "healthcare": null }, "geometry": { "type": "Point", "coordinates": [ 114.623901238629387, -3.501006232722762 ] } },
{ "type": "Feature", "properties": { "osm_id": 1167870220, "osm_type": "way", "name": "RSUD Badaruddin Kasim", "amenity": "hospital", "healthcare": null }, "geometry": { "type": "Point", "coordinates": [ 115.435705863668204, -2.176305439051135 ] } },
{ "type": "Feature", "properties": { "osm_id": 1179642422, "osm_type": "way", "name": "Poskesdes Sungai Dua Laut", "amenity": "clinic", "healthcare": null }, "geometry": { "type": "Point", "coordinates": [ 115.754745968594221, -3.693395528253064 ] } },
{ "type": "Feature", "properties": { "osm_id": 1179655353, "osm_type": "way", "name": "Polindes Guntung", "amenity": "clinic", "healthcare": null }, "geometry": { "type": "Point", "coordinates": [ 115.712436368894998, -3.421657511821567 ] } },
{ "type": "Feature", "properties": { "osm_id": 1179658288, "osm_type": "way", "name": "Poskesdes Anjir Baru", "amenity": "clinic", "healthcare": null }, "geometry": { "type": "Point", "coordinates": [ 115.791664650000527, -3.489107099999972 ] } },
{ "type": "Feature", "properties": { "osm_id": 1179894023, "osm_type": "way", "name": "Puskesmas Banian", "amenity": "clinic", "healthcare": null }, "geometry": { "type": "Point", "coordinates": [ 115.963427301363737, -2.520756998109268 ] } },
{ "type": "Feature", "properties": { "osm_id": 1179894024, "osm_type": "way", "name": "RSUD Sengayam", "amenity": "hospital", "healthcare": null }, "geometry": { "type": "Point", "coordinates": [ 115.986954244653788, -2.374689869659695 ] } },
{ "type": "Feature", "properties": { "osm_id": 1392260014, "osm_type": "way", "name": "Poskesdes Sungai Rasau", "amenity": "clinic", "healthcare": null }, "geometry": { "type": "Point", "coordinates": [ 114.743936939424458, -3.048165590894092 ] } },
{ "type": "Feature", "properties": { "osm_id": 1366730325, "osm_type": "way", "name": "Puskesmas Banjarbaru Selatan", "amenity": "clinic", "healthcare": "clinic" }, "geometry": { "type": "Point", "coordinates": [ 114.829690384993427, -3.444233248868164 ] } },
{ "type": "Feature", "properties": { "osm_id": 1356468164, "osm_type": "way", "name": "Puskesmas Pulau Tanjung", "amenity": "clinic", "healthcare": null }, "geometry": { "type": "Point", "coordinates": [ 115.928293250000849, -3.535779949999634 ] } },
{ "type": "Feature", "properties": { "osm_id": 1270786613, "osm_type": "way", "name": "Klinik", "amenity": "clinic", "healthcare": null }, "geometry": { "type": "Point", "coordinates": [ 115.086963645088673, -2.984854266054942 ] } },
{ "type": "Feature", "properties": { "osm_id": 1031576791, "osm_type": "way", "name": "Puskesmas Sungai Ulin", "amenity": "hospital", "healthcare": "hospital" }, "geometry": { "type": "Point", "coordinates": [ 114.868756317597743, -3.446346393695961 ] } },
{ "type": "Feature", "properties": { "osm_id": 1031585150, "osm_type": "way", "name": "Rumah Sakit Umum Syifa Medika", "amenity": "hospital", "healthcare": "hospital" }, "geometry": { "type": "Point", "coordinates": [ 114.816932569109028, -3.458156754377921 ] } },
{ "type": "Feature", "properties": { "osm_id": 1039610829, "osm_type": "way", "name": "Puskesmas Kaliring", "amenity": "clinic", "healthcare": null }, "geometry": { "type": "Point", "coordinates": [ 115.291104143671603, -2.796450084804746 ] } },
{ "type": "Feature", "properties": { "osm_id": 900998895, "osm_type": "way", "name": "Poskesdes Mantuyan", "amenity": "clinic", "healthcare": null }, "geometry": { "type": "Point", "coordinates": [ 115.677393724768109, -2.33001553781708 ] } },
{ "type": "Feature", "properties": { "osm_id": 901002691, "osm_type": "way", "name": "Poskesdes Telaga Purun", "amenity": "clinic", "healthcare": null }, "geometry": { "type": "Point", "coordinates": [ 115.539325050000315, -2.377100750000211 ] } },
{ "type": "Feature", "properties": { "osm_id": 901020942, "osm_type": "way", "name": "Puskesmas Tebing Tinggi", "amenity": "clinic", "healthcare": null }, "geometry": { "type": "Point", "coordinates": [ 115.615042449999024, -2.438918300000827 ] } },
{ "type": "Feature", "properties": { "osm_id": 901051552, "osm_type": "way", "name": "Puskesmas Pembantu Kedondong", "amenity": "clinic", "healthcare": null }, "geometry": { "type": "Point", "coordinates": [ 115.509888795030861, -2.420876526933623 ] } },
{ "type": "Feature", "properties": { "osm_id": 915916197, "osm_type": "way", "name": "Rumah Sunat Bintang", "amenity": "clinic", "healthcare": null }, "geometry": { "type": "Point", "coordinates": [ 115.316313973352095, -2.635192332922097 ] } },
{ "type": "Feature", "properties": { "osm_id": 916887554, "osm_type": "way", "name": "Praktek Dokter Umum Dr. Shinta Mirani", "amenity": "doctors", "healthcare": "doctor" }, "geometry": { "type": "Point", "coordinates": [ 115.420694660276581, -2.623920582092868 ] } },
{ "type": "Feature", "properties": { "osm_id": 917694607, "osm_type": "way", "name": "Klinik", "amenity": "clinic", "healthcare": null }, "geometry": { "type": "Point", "coordinates": [ 115.087986151010213, -2.946436483424488 ] } },
{ "type": "Feature", "properties": { "osm_id": 918149429, "osm_type": "way", "name": "Puskesmas", "amenity": "clinic", "healthcare": null }, "geometry": { "type": "Point", "coordinates": [ 115.001934317626635, -2.851969336801391 ] } },
{ "type": "Feature", "properties": { "osm_id": 918529072, "osm_type": "way", "name": "Puskesmas", "amenity": "clinic", "healthcare": null }, "geometry": { "type": "Point", "coordinates": [ 115.187527662997624, -3.049180109173747 ] } },
{ "type": "Feature", "properties": { "osm_id": 918758548, "osm_type": "way", "name": "Puskesmas", "amenity": "clinic", "healthcare": null }, "geometry": { "type": "Point", "coordinates": [ 115.278667557770007, -2.958273550469314 ] } },
{ "type": "Feature", "properties": { "osm_id": 918809657, "osm_type": "way", "name": "Klinik", "amenity": "clinic", "healthcare": null }, "geometry": { "type": "Point", "coordinates": [ 115.010231349999117, -2.853899950000525 ] } },
{ "type": "Feature", "properties": { "osm_id": 919137626, "osm_type": "way", "name": "Puskesmas Baringin", "amenity": "clinic", "healthcare": null }, "geometry": { "type": "Point", "coordinates": [ 114.93776422722064, -2.893130653574829 ] } },
{ "type": "Feature", "properties": { "osm_id": 1192037502, "osm_type": "way", "name": "Poskesdes Baruh Tabing", "amenity": "clinic", "healthcare": null }, "geometry": { "type": "Point", "coordinates": [ 115.301233049363091, -2.408448883338749 ] } },
{ "type": "Feature", "properties": { "osm_id": 933641763, "osm_type": "way", "name": "Puskesmas Lama Sungai Tabuk 1", "amenity": "hospital", "healthcare": "hospital" }, "geometry": { "type": "Point", "coordinates": [ 114.699855461223962, -3.321896120490379 ] } },
{ "type": "Feature", "properties": { "osm_id": 969992071, "osm_type": "way", "name": "Puskesmas Paramasan", "amenity": "clinic", "healthcare": null }, "geometry": { "type": "Point", "coordinates": [ 115.452751053945931, -2.989552281295692 ] } },
{ "type": "Feature", "properties": { "osm_id": 789009026, "osm_type": "way", "name": "Rumah Sakit Khusus Bedah Siaga", "amenity": "hospital", "healthcare": "hospital" }, "geometry": { "type": "Point", "coordinates": [ 114.617637887678242, -3.336949747959992 ] } },
{ "type": "Feature", "properties": { "osm_id": 791427699, "osm_type": "way", "name": "Rumah Sakit Gigi Mulut Gusti Hasan Aman", "amenity": "hospital", "healthcare": "hospital" }, "geometry": { "type": "Point", "coordinates": [ 114.601901046552868, -3.321997700676185 ] } },
{ "type": "Feature", "properties": { "osm_id": 839296704, "osm_type": "way", "name": "Puskesmas Tambang Ulang", "amenity": "clinic", "healthcare": "clinic" }, "geometry": { "type": "Point", "coordinates": [ 114.728364481851798, -3.692110216987069 ] } },
{ "type": "Feature", "properties": { "osm_id": 860583263, "osm_type": "way", "name": "Rumah Sakit Umum Daerah Idaman Banjarbaru", "amenity": "hospital", "healthcare": "hospital" }, "geometry": { "type": "Point", "coordinates": [ 114.801152039307794, -3.460819037441853 ] } },
{ "type": "Feature", "properties": { "osm_id": 889424328, "osm_type": "way", "name": "Puskesmas Limpasu", "amenity": "clinic", "healthcare": null }, "geometry": { "type": "Point", "coordinates": [ 115.489696557590577, -2.489521855830934 ] } },
{ "type": "Feature", "properties": { "osm_id": 889451330, "osm_type": "way", "name": "Poskesdes Sumanggi Seberang", "amenity": "clinic", "healthcare": null }, "geometry": { "type": "Point", "coordinates": [ 115.383062825522757, -2.515587197730659 ] } },
{ "type": "Feature", "properties": { "osm_id": 889451343, "osm_type": "way", "name": "Puskesmas Pembantu Ayuang", "amenity": "clinic", "healthcare": null }, "geometry": { "type": "Point", "coordinates": [ 115.387446627613713, -2.544264213068204 ] } },
{ "type": "Feature", "properties": { "osm_id": 889451355, "osm_type": "way", "name": "Poskesdes Pulau Damar", "amenity": "clinic", "healthcare": null }, "geometry": { "type": "Point", "coordinates": [ 115.382488731258164, -2.443056957504391 ] } },
{ "type": "Feature", "properties": { "osm_id": 889464169, "osm_type": "way", "name": "Puskesmas Taras Padang", "amenity": "clinic", "healthcare": null }, "geometry": { "type": "Point", "coordinates": [ 115.361054849997842, -2.627009000000676 ] } },
{ "type": "Feature", "properties": { "osm_id": 890746211, "osm_type": "way", "name": "Puskesmas Kambat Utara", "amenity": "clinic", "healthcare": null }, "geometry": { "type": "Point", "coordinates": [ 115.343205182765004, -2.532176859373278 ] } },
{ "type": "Feature", "properties": { "osm_id": 890746231, "osm_type": "way", "name": "Langgar Darul Falah", "amenity": "clinic", "healthcare": null }, "geometry": { "type": "Point", "coordinates": [ 115.347079621981536, -2.533238115079738 ] } },
{ "type": "Feature", "properties": { "osm_id": 890797675, "osm_type": "way", "name": "Puskesmas Barikin", "amenity": "clinic", "healthcare": null }, "geometry": { "type": "Point", "coordinates": [ 115.327107383309595, -2.682026849328562 ] } },
{ "type": "Feature", "properties": { "osm_id": 236226370, "osm_type": "way", "name": "RSUD H. Boejasin", "amenity": "hospital", "healthcare": "hospital" }, "geometry": { "type": "Point", "coordinates": [ 114.778519667579218, -3.799294924816774 ] } },
{ "type": "Feature", "properties": { "osm_id": 1030286118, "osm_type": "way", "name": "Puskesmas Rawat Inap Cempaka", "amenity": "hospital", "healthcare": "hospital" }, "geometry": { "type": "Point", "coordinates": [ 114.839762527206915, -3.502845066455549 ] } },
{ "type": "Feature", "properties": { "osm_id": 676150310, "osm_type": "way", "name": "Puskesmas Lepasan", "amenity": "clinic", "healthcare": null }, "geometry": { "type": "Point", "coordinates": [ 114.779876533689631, -2.979530711994907 ] } },
{ "type": "Feature", "properties": { "osm_id": 702649825, "osm_type": "way", "name": "Rumah Sakit Tk.III Dr. R.Soedarsono", "amenity": "hospital", "healthcare": "hospital" }, "geometry": { "type": "Point", "coordinates": [ 114.564845173626082, -3.323485099003574 ] } },
{ "type": "Feature", "properties": { "osm_id": 702649834, "osm_type": "way", "name": "Puskesmas Teluk Dalam", "amenity": "clinic", "healthcare": "clinic" }, "geometry": { "type": "Point", "coordinates": [ 114.579994914898705, -3.321954469873948 ] } },
{ "type": "Feature", "properties": { "osm_id": 706400384, "osm_type": "way", "name": "Rumah Sakit Islam Banjarmasin", "amenity": "hospital", "healthcare": "hospital" }, "geometry": { "type": "Point", "coordinates": [ 114.589439722625812, -3.307210706913699 ] } },
{ "type": "Feature", "properties": { "osm_id": 708005332, "osm_type": "way", "name": "Puskesmas Pekauman", "amenity": "clinic", "healthcare": "clinic" }, "geometry": { "type": "Point", "coordinates": [ 114.590449183077766, -3.330673326382366 ] } },
{ "type": "Feature", "properties": { "osm_id": 708721354, "osm_type": "way", "name": "Puskesmas Pembantu Gunung Riut", "amenity": "clinic", "healthcare": null }, "geometry": { "type": "Point", "coordinates": [ 115.62954528228093, -2.184565390776773 ] } },
{ "type": "Feature", "properties": { "osm_id": 708721356, "osm_type": "way", "name": "Poskesdes Puyun", "amenity": "clinic", "healthcare": null }, "geometry": { "type": "Point", "coordinates": [ 115.662005196333752, -2.192530531653853 ] } },
{ "type": "Feature", "properties": { "osm_id": 708731690, "osm_type": "way", "name": "Puskesmas Pirsus", "amenity": "clinic", "healthcare": null }, "geometry": { "type": "Point", "coordinates": [ 115.591824550587035, -2.22444696303155 ] } },
{ "type": "Feature", "properties": { "osm_id": 708740693, "osm_type": "way", "name": "Poskesdes Murung Jambu", "amenity": "clinic", "healthcare": null }, "geometry": { "type": "Point", "coordinates": [ 115.420147621818884, -2.334407204011892 ] } },
{ "type": "Feature", "properties": { "osm_id": 709142406, "osm_type": "way", "name": "Bidan Halimah", "amenity": "doctors", "healthcare": "doctor" }, "geometry": { "type": "Point", "coordinates": [ 114.621038612419696, -3.614212524965559 ] } },
{ "type": "Feature", "properties": { "osm_id": 709674119, "osm_type": "way", "name": "Klinik Spesialis Garuda Estetika", "amenity": "doctors", "healthcare": "doctor" }, "geometry": { "type": "Point", "coordinates": [ 114.596861012440982, -3.319987295493677 ] } },
{ "type": "Feature", "properties": { "osm_id": 380764304, "osm_type": "way", "name": "Puskesmas Amuntai Selatan", "amenity": "clinic", "healthcare": null }, "geometry": { "type": "Point", "coordinates": [ 115.213519103794937, -2.415380917760972 ] } },
{ "type": "Feature", "properties": { "osm_id": 221735759, "osm_type": "way", "name": "Rumah Sakit Umum Daerah Ulin", "amenity": "hospital", "healthcare": "hospital" }, "geometry": { "type": "Point", "coordinates": [ 114.600899110727667, -3.322214200512182 ] } },
{ "type": "Feature", "properties": { "osm_id": 223622644, "osm_type": "way", "name": "Puskesmas Kuin Raya", "amenity": "clinic", "healthcare": "clinic" }, "geometry": { "type": "Point", "coordinates": [ 114.56970726893384, -3.294818063279917 ] } },
{ "type": "Feature", "properties": { "osm_id": 919233322, "osm_type": "way", "name": "Klinik", "amenity": "clinic", "healthcare": null }, "geometry": { "type": "Point", "coordinates": [ 114.937544549999359, -2.879319100000466 ] } },
{ "type": "Feature", "properties": { "osm_id": 919710467, "osm_type": "way", "name": "Poskesdes", "amenity": "hospital", "healthcare": null }, "geometry": { "type": "Point", "coordinates": [ 115.110119151029991, -2.941820040048419 ] } },
{ "type": "Feature", "properties": { "osm_id": 295839224, "osm_type": "way", "name": "Rumah Sakit Umum Sari Mulia", "amenity": "hospital", "healthcare": "hospital" }, "geometry": { "type": "Point", "coordinates": [ 114.605003214375316, -3.327274800846739 ] } },
{ "type": "Feature", "properties": { "osm_id": 298541245, "osm_type": "way", "name": "Rumah Sakit Jiwa Sambang Lihum", "amenity": "hospital", "healthcare": null }, "geometry": { "type": "Point", "coordinates": [ 114.705522858628385, -3.401291320329482 ] } },
{ "type": "Feature", "properties": { "osm_id": 312015598, "osm_type": "way", "name": "Rumah Sakit Danau Salak", "amenity": "hospital", "healthcare": "hospital" }, "geometry": { "type": "Point", "coordinates": [ 114.952455567772759, -3.323054549577829 ] } },
{ "type": "Feature", "properties": { "osm_id": 312016254, "osm_type": "way", "name": "RSUD Ratu Zalecha", "amenity": "hospital", "healthcare": "hospital" }, "geometry": { "type": "Point", "coordinates": [ 114.845933582134109, -3.419204389939336 ] } },
{ "type": "Feature", "properties": { "osm_id": 312016255, "osm_type": "way", "name": "RSUD Brigjend. H. Hasan Basry", "amenity": "hospital", "healthcare": "hospital" }, "geometry": { "type": "Point", "coordinates": [ 115.259152921229614, -2.800378717342498 ] } },
{ "type": "Feature", "properties": { "osm_id": 312016256, "osm_type": "way", "name": "RSUD H. Damanhuri", "amenity": "hospital", "healthcare": "hospital" }, "geometry": { "type": "Point", "coordinates": [ 115.374733363597187, -2.589513806355459 ] } },
{ "type": "Feature", "properties": { "osm_id": 312016257, "osm_type": "way", "name": "RSUD H. Badaruddin", "amenity": "hospital", "healthcare": "hospital" }, "geometry": { "type": "Point", "coordinates": [ 115.386718631624746, -2.157063826627042 ] } },
{ "type": "Feature", "properties": { "osm_id": 321759662, "osm_type": "way", "name": "Klinik Mandiri", "amenity": "clinic", "healthcare": null }, "geometry": { "type": "Point", "coordinates": [ 115.996276849998708, -3.416002399998185 ] } },
{ "type": "Feature", "properties": { "osm_id": 349212950, "osm_type": "way", "name": "Puskesmas Wasah Hulu", "amenity": "clinic", "healthcare": null }, "geometry": { "type": "Point", "coordinates": [ 115.230816226391198, -2.792070063835278 ] } },
{ "type": "Feature", "properties": { "osm_id": 354334196, "osm_type": "way", "name": "Puskesmas Babirik", "amenity": "clinic", "healthcare": null }, "geometry": { "type": "Point", "coordinates": [ 115.137586399999037, -2.535648349997521 ] } },
{ "type": "Feature", "properties": { "osm_id": 355879410, "osm_type": "way", "name": "Puskesmas Teluk Tiram", "amenity": "clinic", "healthcare": "clinic" }, "geometry": { "type": "Point", "coordinates": [ 114.58199620624292, -3.338550739196366 ] } },
{ "type": "Feature", "properties": { "osm_id": 891745527, "osm_type": "way", "name": "Poskesdes Hamak", "amenity": "clinic", "healthcare": null }, "geometry": { "type": "Point", "coordinates": [ 115.366182068178162, -2.748076532725268 ] } },
{ "type": "Feature", "properties": { "osm_id": 891745538, "osm_type": "way", "name": "Puskesmas Telaga Langsat", "amenity": "clinic", "healthcare": null }, "geometry": { "type": "Point", "coordinates": [ 115.335962600275636, -2.735551466593217 ] } },
{ "type": "Feature", "properties": { "osm_id": 899719426, "osm_type": "way", "name": "Poskesdes Matang Lurus", "amenity": "clinic", "healthcare": null }, "geometry": { "type": "Point", "coordinates": [ 115.318899999998507, -2.401473150000682 ] } },
{ "type": "Feature", "properties": { "osm_id": 900975866, "osm_type": "way", "name": "Puskesmas Pembantu Ambakiang", "amenity": "clinic", "healthcare": null }, "geometry": { "type": "Point", "coordinates": [ 115.574458450000279, -2.395806900001223 ] } },
{ "type": "Feature", "properties": { "osm_id": 675947107, "osm_type": "way", "name": "Puskesmas Bantuil", "amenity": "clinic", "healthcare": null }, "geometry": { "type": "Point", "coordinates": [ 114.773152768015777, -3.024696450360349 ] } },
{ "type": "Feature", "properties": { "osm_id": 381955247, "osm_type": "way", "name": "Puskesmas Tanah Habang", "amenity": "clinic", "healthcare": null }, "geometry": { "type": "Point", "coordinates": [ 115.326619462828475, -2.389960824834756 ] } },
{ "type": "Feature", "properties": { "osm_id": 381966439, "osm_type": "way", "name": "Puskesmas Paringin", "amenity": "clinic", "healthcare": null }, "geometry": { "type": "Point", "coordinates": [ 115.461520999975733, -2.336060950009587 ] } },
{ "type": "Feature", "properties": { "osm_id": 382189008, "osm_type": "way", "name": "Puskesmas Banjang", "amenity": "clinic", "healthcare": null }, "geometry": { "type": "Point", "coordinates": [ 115.315265349995897, -2.407415300006046 ] } },
{ "type": "Feature", "properties": { "osm_id": 382255150, "osm_type": "way", "name": "Puskesmas Ilung", "amenity": "clinic", "healthcare": null }, "geometry": { "type": "Point", "coordinates": [ 115.408872747825015, -2.518720154844163 ] } },
{ "type": "Feature", "properties": { "osm_id": 382358060, "osm_type": "way", "name": "Puskesmas Barabai", "amenity": "clinic", "healthcare": "clinic" }, "geometry": { "type": "Point", "coordinates": [ 115.388019254633917, -2.586589317174397 ] } },
{ "type": "Feature", "properties": { "osm_id": 382382665, "osm_type": "way", "name": "Poskesdes Tayur", "amenity": "clinic", "healthcare": null }, "geometry": { "type": "Point", "coordinates": [ 115.310508102416335, -2.353421033739093 ] } },
{ "type": "Feature", "properties": { "osm_id": 382382733, "osm_type": "way", "name": "Puskesmas Pembantu Banua Hanyar", "amenity": "clinic", "healthcare": null }, "geometry": { "type": "Point", "coordinates": [ 115.341193134571895, -2.597364924596699 ] } },
{ "type": "Feature", "properties": { "osm_id": 382399970, "osm_type": "way", "name": "Puskesmas Batu Mandi", "amenity": "clinic", "healthcare": null }, "geometry": { "type": "Point", "coordinates": [ 115.424113864443484, -2.427512291410029 ] } },
{ "type": "Feature", "properties": { "osm_id": 382399971, "osm_type": "way", "name": "Puskesmas Paringin Selatan", "amenity": "clinic", "healthcare": null }, "geometry": { "type": "Point", "coordinates": [ 115.475412327737203, -2.351326971282541 ] } },
{ "type": "Feature", "properties": { "osm_id": 386208436, "osm_type": "way", "name": "RS Pertamina Tanjung", "amenity": "hospital", "healthcare": "hospital" }, "geometry": { "type": "Point", "coordinates": [ 115.402126294907475, -2.144579300430201 ] } },
{ "type": "Feature", "properties": { "osm_id": 386215992, "osm_type": "way", "name": "PUSKESMAS MURUNG PUDAK", "amenity": "hospital", "healthcare": "hospital" }, "geometry": { "type": "Point", "coordinates": [ 115.393071818360369, -2.144852454240342 ] } },
{ "type": "Feature", "properties": { "osm_id": 398997374, "osm_type": "way", "name": "Polindes Mangkupum", "amenity": "clinic", "healthcare": null }, "geometry": { "type": "Point", "coordinates": [ 115.59789559999939, -1.952564200000267 ] } },
{ "type": "Feature", "properties": { "osm_id": 248404351, "osm_type": "way", "name": "RSUD Balangan", "amenity": "hospital", "healthcare": "hospital" }, "geometry": { "type": "Point", "coordinates": [ 115.476691328819271, -2.330503427745181 ] } },
{ "type": "Feature", "properties": { "osm_id": 266382389, "osm_type": "way", "name": "Puskesmas Pelaihari", "amenity": "clinic", "healthcare": "clinic" }, "geometry": { "type": "Point", "coordinates": [ 114.760117610573573, -3.807135560759776 ] } },
{ "type": "Feature", "properties": { "osm_id": 286407314, "osm_type": "way", "name": "Puskesmas Cempaka Putih", "amenity": null, "healthcare": "clinic" }, "geometry": { "type": "Point", "coordinates": [ 114.606736270296935, -3.322241040752426 ] } },
{ "type": "Feature", "properties": { "osm_id": 295625982, "osm_type": "way", "name": "Rumah Sakit Bhayangkara Banjarmasin", "amenity": "hospital", "healthcare": "hospital" }, "geometry": { "type": "Point", "coordinates": [ 114.611054025482034, -3.328843895829737 ] } },
{ "type": "Feature", "properties": { "osm_id": 400611322, "osm_type": "way", "name": "Puskesmas Bintang Ara", "amenity": "clinic", "healthcare": null }, "geometry": { "type": "Point", "coordinates": [ 115.444742096843044, -1.970983071691855 ] } },
{ "type": "Feature", "properties": { "osm_id": 400611323, "osm_type": "way", "name": "Puskesmas Haruai", "amenity": "clinic", "healthcare": "clinic" }, "geometry": { "type": "Point", "coordinates": [ 115.50969453737406, -2.015738128131522 ] } },
{ "type": "Feature", "properties": { "osm_id": 400611324, "osm_type": "way", "name": "Puskesmas Muara Uya", "amenity": "clinic", "healthcare": null }, "geometry": { "type": "Point", "coordinates": [ 115.599345060259495, -1.886761525670047 ] } },
{ "type": "Feature", "properties": { "osm_id": 402820764, "osm_type": "way", "name": "Polindes Bilas", "amenity": "clinic", "healthcare": null }, "geometry": { "type": "Point", "coordinates": [ 115.554333666233489, -2.107045104532103 ] } },
{ "type": "Feature", "properties": { "osm_id": 402820765, "osm_type": "way", "name": "Puskesmas Pembantu Masingai", "amenity": "clinic", "healthcare": null }, "geometry": { "type": "Point", "coordinates": [ 115.550939033049843, -2.108076137613724 ] } },
{ "type": "Feature", "properties": { "osm_id": 403804696, "osm_type": "way", "name": "Poskesdes Pihaung", "amenity": "clinic", "healthcare": null }, "geometry": { "type": "Point", "coordinates": [ 115.249741599998544, -2.37935365000006 ] } },
{ "type": "Feature", "properties": { "osm_id": 403804697, "osm_type": "way", "name": "Poskesdes Sungai Binuang", "amenity": "clinic", "healthcare": null }, "geometry": { "type": "Point", "coordinates": [ 115.259299840724651, -2.365549090920917 ] } },
{ "type": "Feature", "properties": { "osm_id": 403865325, "osm_type": "way", "name": "Puskesmas Haur Gading", "amenity": "clinic", "healthcare": null }, "geometry": { "type": "Point", "coordinates": [ 115.248702870591572, -2.379915389527246 ] } },
{ "type": "Feature", "properties": { "osm_id": 403865326, "osm_type": "way", "name": "Puskesmas Pembantu Palimbang Gusti", "amenity": "clinic", "healthcare": null }, "geometry": { "type": "Point", "coordinates": [ 115.238014675732899, -2.399666804515207 ] } },
{ "type": "Feature", "properties": { "osm_id": 403865327, "osm_type": "way", "name": "Puskesmas Pembantu Waringin", "amenity": "clinic", "healthcare": null }, "geometry": { "type": "Point", "coordinates": [ 115.246307619157704, -2.367321962637075 ] } },
{ "type": "Feature", "properties": { "osm_id": 406438507, "osm_type": "way", "name": "Puskesmas Batu Tangga", "amenity": "clinic", "healthcare": null }, "geometry": { "type": "Point", "coordinates": [ 115.531902250102362, -2.527270796277112 ] } },
{ "type": "Feature", "properties": { "osm_id": 410547765, "osm_type": "way", "name": "Poskesdes Ulin", "amenity": "clinic", "healthcare": null }, "geometry": { "type": "Point", "coordinates": [ 115.221974499999462, -2.791123550001668 ] } },
{ "type": "Feature", "properties": { "osm_id": 380764316, "osm_type": "way", "name": "Puskesmas Pembantu Jumba", "amenity": "clinic", "healthcare": null }, "geometry": { "type": "Point", "coordinates": [ 115.235714899998072, -2.421799 ] } },
{ "type": "Feature", "properties": { "osm_id": 380764359, "osm_type": "way", "name": "Puskesmas Pembantu Simpang Empat", "amenity": "clinic", "healthcare": null }, "geometry": { "type": "Point", "coordinates": [ 115.217931100002005, -2.445612000001366 ] } },
{ "type": "Feature", "properties": { "osm_id": 381955191, "osm_type": "way", "name": "Puskesmas Sungai Karias", "amenity": "clinic", "healthcare": null }, "geometry": { "type": "Point", "coordinates": [ 115.264124889036694, -2.420610279770977 ] } },
{ "type": "Feature", "properties": { "osm_id": 381955234, "osm_type": "way", "name": "Puskesmas Lampihong", "amenity": "clinic", "healthcare": null }, "geometry": { "type": "Point", "coordinates": [ 115.375466881010709, -2.34152043042772 ] } },
{ "type": "Feature", "properties": { "osm_id": 421921308, "osm_type": "way", "name": "Puskesmas Beruntung Raya", "amenity": "clinic", "healthcare": "clinic" }, "geometry": { "type": "Point", "coordinates": [ 114.600506149999163, -3.357875150001263 ] } },
{ "type": "Feature", "properties": { "osm_id": 421921309, "osm_type": "way", "name": "Puskesmas Pembantu Basirih Selatan", "amenity": "clinic", "healthcare": "clinic" }, "geometry": { "type": "Point", "coordinates": [ 114.573931549998434, -3.342350900000162 ] } },
{ "type": "Feature", "properties": { "osm_id": 421943898, "osm_type": "way", "name": "Poskesdes Barunai Baru", "amenity": "clinic", "healthcare": "clinic" }, "geometry": { "type": "Point", "coordinates": [ 114.506439989068539, -3.154705242683701 ] } },
{ "type": "Feature", "properties": { "osm_id": 421943899, "osm_type": "way", "name": "Puskesmas Anjir Muara", "amenity": "clinic", "healthcare": null }, "geometry": { "type": "Point", "coordinates": [ 114.545737934828693, -3.19754601032397 ] } },
{ "type": "Feature", "properties": { "osm_id": 421943900, "osm_type": "way", "name": "Puskesmas Berangas", "amenity": "clinic", "healthcare": "clinic" }, "geometry": { "type": "Point", "coordinates": [ 114.565104677421616, -3.251973103495843 ] } },
{ "type": "Feature", "properties": { "osm_id": 423266899, "osm_type": "way", "name": "Puskesmas Pembantu Sungai Durait Tengah", "amenity": "clinic", "healthcare": null }, "geometry": { "type": "Point", "coordinates": [ 115.164277871467917, -2.534274954058224 ] } },
{ "type": "Feature", "properties": { "osm_id": 423293320, "osm_type": "way", "name": "Puskesmas Pembantu Baruh Jaya", "amenity": "clinic", "healthcare": null }, "geometry": { "type": "Point", "coordinates": [ 115.078678099998299, -2.628227500000206 ] } },
{ "type": "Feature", "properties": { "osm_id": 423293322, "osm_type": "way", "name": "Puskesmas Pembantu Sungai Pinang", "amenity": "clinic", "healthcare": null }, "geometry": { "type": "Point", "coordinates": [ 115.099233042977374, -2.635201676161787 ] } },
{ "type": "Feature", "properties": { "osm_id": 479991641, "osm_type": "way", "name": "Poskesdes Kapul", "amenity": "clinic", "healthcare": null }, "geometry": { "type": "Point", "coordinates": [ 115.66003149999915, -2.257591250000059 ] } },
{ "type": "Feature", "properties": { "osm_id": 479991671, "osm_type": "way", "name": "Puskesmas Uren", "amenity": "clinic", "healthcare": null }, "geometry": { "type": "Point", "coordinates": [ 115.720132494626299, -2.340835588468472 ] } },
{ "type": "Feature", "properties": { "osm_id": 483872288, "osm_type": "way", "name": "Puskesmas Pasar Sabtu", "amenity": "clinic", "healthcare": null }, "geometry": { "type": "Point", "coordinates": [ 115.182916371281863, -2.434843939610401 ] } },
{ "type": "Feature", "properties": { "osm_id": 551294769, "osm_type": "way", "name": "RSUD Dr. H. Moch. Ansari Saleh", "amenity": "hospital", "healthcare": "hospital" }, "geometry": { "type": "Point", "coordinates": [ 114.58787294538638, -3.278191962915402 ] } },
{ "type": "Feature", "properties": { "osm_id": 399569345, "osm_type": "way", "name": "Puskesmas Muara Harus", "amenity": "clinic", "healthcare": null }, "geometry": { "type": "Point", "coordinates": [ 115.323585674020379, -2.248662287970845 ] } },
{ "type": "Feature", "properties": { "osm_id": 399569346, "osm_type": "way", "name": "Puskesmas Pembantu Padangin", "amenity": "clinic", "healthcare": null }, "geometry": { "type": "Point", "coordinates": [ 115.3457962322898, -2.235431901461342 ] } },
{ "type": "Feature", "properties": { "osm_id": 399569347, "osm_type": "way", "name": "Puskesmas Upau", "amenity": "clinic", "healthcare": null }, "geometry": { "type": "Point", "coordinates": [ 115.616748514102113, -2.074629423142328 ] } },
{ "type": "Feature", "properties": { "osm_id": 400611321, "osm_type": "way", "name": "Poskesdes Hayup", "amenity": "clinic", "healthcare": null }, "geometry": { "type": "Point", "coordinates": [ 115.524057793076508, -1.979319973089957 ] } },
{ "type": "Feature", "properties": { "osm_id": 561948384, "osm_type": "way", "name": "Klinik Pratama Banjarbaru", "amenity": "clinic", "healthcare": null }, "geometry": { "type": "Point", "coordinates": [ 114.827181596204682, -3.442447147314871 ] } },
{ "type": "Feature", "properties": { "osm_id": 561960966, "osm_type": "way", "name": "Puskesmas Aranio", "amenity": "clinic", "healthcare": null }, "geometry": { "type": "Point", "coordinates": [ 114.999509849303408, -3.512931579016023 ] } },
{ "type": "Feature", "properties": { "osm_id": 564560566, "osm_type": "way", "name": "Polindes", "amenity": "clinic", "healthcare": null }, "geometry": { "type": "Point", "coordinates": [ 114.629960699999316, -3.963069650000729 ] } },
{ "type": "Feature", "properties": { "osm_id": 564567573, "osm_type": "way", "name": "POSYANDU", "amenity": "clinic", "healthcare": null }, "geometry": { "type": "Point", "coordinates": [ 114.614902308932969, -3.76246458000461 ] } },
{ "type": "Feature", "properties": { "osm_id": 564567602, "osm_type": "way", "name": "PUSTU BIDAN DESA TABANIO", "amenity": "clinic", "healthcare": null }, "geometry": { "type": "Point", "coordinates": [ 114.614648452187836, -3.761817224016736 ] } },
{ "type": "Feature", "properties": { "osm_id": 564593974, "osm_type": "way", "name": "PUSTU", "amenity": "clinic", "healthcare": null }, "geometry": { "type": "Point", "coordinates": [ 114.618788913144641, -3.760196276980658 ] } },
{ "type": "Feature", "properties": { "osm_id": 564610733, "osm_type": "way", "name": "UGD Puskesmas Kintap", "amenity": "clinic", "healthcare": "clinic" }, "geometry": { "type": "Point", "coordinates": [ 115.207221949996253, -3.864773800004784 ] } },
{ "type": "Feature", "properties": { "osm_id": 564870654, "osm_type": "way", "name": "Puskesmas Kintap", "amenity": "clinic", "healthcare": "clinic" }, "geometry": { "type": "Point", "coordinates": [ 115.2077463, -3.864621249999815 ] } },
{ "type": "Feature", "properties": { "osm_id": 565210264, "osm_type": "way", "name": "Pustu Takisung", "amenity": "clinic", "healthcare": null }, "geometry": { "type": "Point", "coordinates": [ 114.61043249999986, -3.870667399998302 ] } },
{ "type": "Feature", "properties": { "osm_id": 573336775, "osm_type": "way", "name": "Peskesmas Pembantu", "amenity": "clinic", "healthcare": null }, "geometry": { "type": "Point", "coordinates": [ 114.733184686619097, -3.785254015086379 ] } },
{ "type": "Feature", "properties": { "osm_id": 573336949, "osm_type": "way", "name": "Poskesdes Karang Taruna", "amenity": "clinic", "healthcare": null }, "geometry": { "type": "Point", "coordinates": [ 114.735052954384628, -3.806012233560164 ] } },
{ "type": "Feature", "properties": { "osm_id": 573461883, "osm_type": "way", "name": "Posyandu Desa Bajuin", "amenity": "clinic", "healthcare": null }, "geometry": { "type": "Point", "coordinates": [ 114.819507669417703, -3.778347014418223 ] } },
{ "type": "Feature", "properties": { "osm_id": 410547766, "osm_type": "way", "name": "Puskesmas Pembantu Hantarukung", "amenity": "clinic", "healthcare": null }, "geometry": { "type": "Point", "coordinates": [ 115.21078579642159, -2.797499082599958 ] } },
{ "type": "Feature", "properties": { "osm_id": 416519170, "osm_type": "way", "name": "Puskesmas Wildan", "amenity": "clinic", "healthcare": "clinic" }, "geometry": { "type": "Point", "coordinates": [ 114.572815950000404, -3.326340349999457 ] } },
{ "type": "Feature", "properties": { "osm_id": 416519203, "osm_type": "way", "name": "Puskesmas Banjarmasin Indah", "amenity": "clinic", "healthcare": "clinic" }, "geometry": { "type": "Point", "coordinates": [ 114.564633989719695, -3.330867456679075 ] } },
{ "type": "Feature", "properties": { "osm_id": 416532856, "osm_type": "way", "name": "RSUD Sultan Suriansyah Banjarmasin", "amenity": "hospital", "healthcare": "hospital" }, "geometry": { "type": "Point", "coordinates": [ 114.585100461661312, -3.3329875654949 ] } },
{ "type": "Feature", "properties": { "osm_id": 574790871, "osm_type": "way", "name": "POLINDES", "amenity": "clinic", "healthcare": null }, "geometry": { "type": "Point", "coordinates": [ 114.83072653381862, -3.80311306761268 ] } },
{ "type": "Feature", "properties": { "osm_id": 574802704, "osm_type": "way", "name": "Polindes", "amenity": "clinic", "healthcare": null }, "geometry": { "type": "Point", "coordinates": [ 114.831216749999385, -3.772789049999795 ] } },
{ "type": "Feature", "properties": { "osm_id": 575115744, "osm_type": "way", "name": "Poskesdes Belandean Dalam", "amenity": "clinic", "healthcare": null }, "geometry": { "type": "Point", "coordinates": [ 114.591122600001171, -3.191161400000997 ] } },
{ "type": "Feature", "properties": { "osm_id": 575491384, "osm_type": "way", "name": "Klinik Umum", "amenity": "doctors", "healthcare": null }, "geometry": { "type": "Point", "coordinates": [ 114.728597880463724, -3.821272215559101 ] } },
{ "type": "Feature", "properties": { "osm_id": 575630717, "osm_type": "way", "name": "PUSTU Desa Bajuin", "amenity": "clinic", "healthcare": null }, "geometry": { "type": "Point", "coordinates": [ 114.826915501606194, -3.774606384308259 ] } },
{ "type": "Feature", "properties": { "osm_id": 575646871, "osm_type": "way", "name": "Puskesmas Basirih Baru", "amenity": null, "healthcare": "clinic" }, "geometry": { "type": "Point", "coordinates": [ 114.569614685441323, -3.332538118197127 ] } },
{ "type": "Feature", "properties": { "osm_id": 575649755, "osm_type": "way", "name": "Puskesmas Mandastana", "amenity": "clinic", "healthcare": null }, "geometry": { "type": "Point", "coordinates": [ 114.660450967565822, -3.181244122128626 ] } },
{ "type": "Feature", "properties": { "osm_id": 575743798, "osm_type": "way", "name": "Puskesmas Sungai Riam", "amenity": "clinic", "healthcare": null }, "geometry": { "type": "Point", "coordinates": [ 114.728976103426405, -3.900510980773398 ] } },
{ "type": "Feature", "properties": { "osm_id": 575769889, "osm_type": "way", "name": "Puskesdes Bahandang", "amenity": "clinic", "healthcare": null }, "geometry": { "type": "Point", "coordinates": [ 114.735884500000012, -3.207023650001043 ] } },
{ "type": "Feature", "properties": { "osm_id": 575779983, "osm_type": "way", "name": "Posyandu RW 2", "amenity": "clinic", "healthcare": null }, "geometry": { "type": "Point", "coordinates": [ 114.70122872017771, -3.615473240109297 ] } },
{ "type": "Feature", "properties": { "osm_id": 575817499, "osm_type": "way", "name": "Puskesdes", "amenity": "clinic", "healthcare": null }, "geometry": { "type": "Point", "coordinates": [ 114.70084550000152, -3.615687299997709 ] } },
{ "type": "Feature", "properties": { "osm_id": 576129607, "osm_type": "way", "name": "Polindes Dea Rahayu", "amenity": "clinic", "healthcare": null }, "geometry": { "type": "Point", "coordinates": [ 114.911120849995527, -3.897076500001642 ] } },
{ "type": "Feature", "properties": { "osm_id": 576354647, "osm_type": "way", "name": "Puskesmas Pembantu Desa Tanjung", "amenity": "clinic", "healthcare": null }, "geometry": { "type": "Point", "coordinates": [ 114.923936749999982, -3.674996699999885 ] } },
{ "type": "Feature", "properties": { "osm_id": 551442390, "osm_type": "way", "name": "Puskesmas Alalak Tengah", "amenity": "clinic", "healthcare": null }, "geometry": { "type": "Point", "coordinates": [ 114.575893419496481, -3.279637353662137 ] } },
{ "type": "Feature", "properties": { "osm_id": 556931248, "osm_type": "way", "name": "Pustu Pegatan Besar", "amenity": "clinic", "healthcare": null }, "geometry": { "type": "Point", "coordinates": [ 114.606030283349483, -3.809206566690309 ] } },
{ "type": "Feature", "properties": { "osm_id": 556935978, "osm_type": "way", "name": "Polindes Pegatan Besar", "amenity": "clinic", "healthcare": null }, "geometry": { "type": "Point", "coordinates": [ 114.60487721487867, -3.803647531439504 ] } },
{ "type": "Feature", "properties": { "osm_id": 577770265, "osm_type": "way", "name": "Puskesmas Gadang Hanyar", "amenity": "clinic", "healthcare": "clinic" }, "geometry": { "type": "Point", "coordinates": [ 114.601937593736636, -3.326905457976044 ] } },
{ "type": "Feature", "properties": { "osm_id": 578157633, "osm_type": "way", "name": null, "amenity": "doctors", "healthcare": "midwife" }, "geometry": { "type": "Point", "coordinates": [ 114.58196587945244, -3.320473517176755 ] } },
{ "type": "Feature", "properties": { "osm_id": 578208841, "osm_type": "way", "name": "Rumah Sakit Khusus Ibu dan Anak Annisa", "amenity": "hospital", "healthcare": "hospital" }, "geometry": { "type": "Point", "coordinates": [ 114.571483421079463, -3.307229040445922 ] } },
{ "type": "Feature", "properties": { "osm_id": 578276551, "osm_type": "way", "name": null, "amenity": "doctors", "healthcare": "doctor" }, "geometry": { "type": "Point", "coordinates": [ 114.584225671395501, -3.317151552501488 ] } },
{ "type": "Feature", "properties": { "osm_id": 578320860, "osm_type": "way", "name": "Puskesmas Batu Benawa", "amenity": "clinic", "healthcare": "clinic" }, "geometry": { "type": "Point", "coordinates": [ 115.421034458748082, -2.623475667506761 ] } },
{ "type": "Feature", "properties": { "osm_id": 578365693, "osm_type": "way", "name": "Pustu Handil Suruk", "amenity": "clinic", "healthcare": null }, "geometry": { "type": "Point", "coordinates": [ 114.614830584196099, -3.546522977698781 ] } },
{ "type": "Feature", "properties": { "osm_id": 578414768, "osm_type": "way", "name": "Klinik Utama Rawat Inap Ibu Dan Anak Mahkota Bunda Gadang", "amenity": "hospital", "healthcare": "hospital" }, "geometry": { "type": "Point", "coordinates": [ 114.59568146055507, -3.315058919428034 ] } },
{ "type": "Feature", "properties": { "osm_id": 578512055, "osm_type": "way", "name": "Bidan Delima Naniaty", "amenity": null, "healthcare": "midwife" }, "geometry": { "type": "Point", "coordinates": [ 114.573230749998714, -3.324343450000864 ] } },
{ "type": "Feature", "properties": { "osm_id": 578635183, "osm_type": "way", "name": "Puskesmas Sei Mesa", "amenity": "clinic", "healthcare": "clinic" }, "geometry": { "type": "Point", "coordinates": [ 114.597825250004064, -3.313413400006036 ] } },
{ "type": "Feature", "properties": { "osm_id": 578746502, "osm_type": "way", "name": "Puskesmas Pembantu Berangas Timur", "amenity": "clinic", "healthcare": "clinic" }, "geometry": { "type": "Point", "coordinates": [ 114.576606250000211, -3.269239400002107 ] } },
{ "type": "Feature", "properties": { "osm_id": 578962710, "osm_type": "way", "name": "apotek rakyat", "amenity": "clinic", "healthcare": "clinic" }, "geometry": { "type": "Point", "coordinates": [ 114.592373800005262, -3.323091400002196 ] } },
{ "type": "Feature", "properties": { "osm_id": 579138166, "osm_type": "way", "name": "Puskesmas Tandilang", "amenity": "clinic", "healthcare": null }, "geometry": { "type": "Point", "coordinates": [ 115.541936810989625, -2.579831223272657 ] } },
{ "type": "Feature", "properties": { "osm_id": 579242508, "osm_type": "way", "name": "Puskesmas Lok Batu", "amenity": "clinic", "healthcare": "clinic" }, "geometry": { "type": "Point", "coordinates": [ 115.499734949999706, -2.462385349999636 ] } },
{ "type": "Feature", "properties": { "osm_id": 573654153, "osm_type": "way", "name": "Puskesdes Sungai Jelai", "amenity": "clinic", "healthcare": null }, "geometry": { "type": "Point", "coordinates": [ 114.74451183542881, -3.708505677420518 ] } },
{ "type": "Feature", "properties": { "osm_id": 573812585, "osm_type": "way", "name": "Polindes Berangas Timur", "amenity": "clinic", "healthcare": "clinic" }, "geometry": { "type": "Point", "coordinates": [ 114.575818099998784, -3.267575750000584 ] } },
{ "type": "Feature", "properties": { "osm_id": 574441332, "osm_type": "way", "name": "POSKES Kodim 1009", "amenity": "hospital", "healthcare": "hospital" }, "geometry": { "type": "Point", "coordinates": [ 114.770910404132877, -3.798374216586096 ] } },
{ "type": "Feature", "properties": { "osm_id": 579306319, "osm_type": "way", "name": "Polindes Desa Bumi Jaya", "amenity": "clinic", "healthcare": null }, "geometry": { "type": "Point", "coordinates": [ 114.80692614999839, -3.820338800000581 ] } },
{ "type": "Feature", "properties": { "osm_id": 579324696, "osm_type": "way", "name": "Posyandu", "amenity": "clinic", "healthcare": null }, "geometry": { "type": "Point", "coordinates": [ 114.803237049996852, -3.78651410000278 ] } },
{ "type": "Feature", "properties": { "osm_id": 579324969, "osm_type": "way", "name": "Polindes Tirta Jaya", "amenity": "clinic", "healthcare": null }, "geometry": { "type": "Point", "coordinates": [ 114.806214168722676, -3.802245610433755 ] } },
{ "type": "Feature", "properties": { "osm_id": 579415747, "osm_type": "way", "name": "PUSTU PABAHANAN", "amenity": "clinic", "healthcare": null }, "geometry": { "type": "Point", "coordinates": [ 114.773501449998903, -3.775048249999948 ] } },
{ "type": "Feature", "properties": { "osm_id": 579423292, "osm_type": "way", "name": "PUSKESMAS KEL. SARANG HALANG", "amenity": "clinic", "healthcare": null }, "geometry": { "type": "Point", "coordinates": [ 114.780764446651887, -3.816913308393812 ] } },
{ "type": "Feature", "properties": { "osm_id": 579533785, "osm_type": "way", "name": "Puskesmas Tajau Pecah", "amenity": "hospital", "healthcare": "hospital" }, "geometry": { "type": "Point", "coordinates": [ 114.823655063159848, -3.884172552228621 ] } },
{ "type": "Feature", "properties": { "osm_id": 579537864, "osm_type": "way", "name": "Posyandu Desa Gunung Raja", "amenity": "clinic", "healthcare": null }, "geometry": { "type": "Point", "coordinates": [ 114.703650899999872, -3.641992100000045 ] } },
{ "type": "Feature", "properties": { "osm_id": 579746444, "osm_type": "way", "name": "PUSTU", "amenity": "clinic", "healthcare": null }, "geometry": { "type": "Point", "coordinates": [ 114.720446644240297, -3.821641814454011 ] } },
{ "type": "Feature", "properties": { "osm_id": 579868160, "osm_type": "way", "name": "Puskesmas Bati-Bati", "amenity": "clinic", "healthcare": null }, "geometry": { "type": "Point", "coordinates": [ 114.704112531774172, -3.598295537738749 ] } },
{ "type": "Feature", "properties": { "osm_id": 579869356, "osm_type": "way", "name": "Klinik Dr. Aulia Rachman", "amenity": "clinic", "healthcare": null }, "geometry": { "type": "Point", "coordinates": [ 114.704405587378886, -3.597662929602774 ] } },
{ "type": "Feature", "properties": { "osm_id": 579988288, "osm_type": "way", "name": "Puskesmas Sungai Cuka", "amenity": "clinic", "healthcare": null }, "geometry": { "type": "Point", "coordinates": [ 115.331877372235809, -3.840586145773567 ] } },
{ "type": "Feature", "properties": { "osm_id": 580038060, "osm_type": "way", "name": "Posyandu Sungai Cuka", "amenity": "clinic", "healthcare": null }, "geometry": { "type": "Point", "coordinates": [ 115.344849249995249, -3.824822049999954 ] } },
{ "type": "Feature", "properties": { "osm_id": 580170791, "osm_type": "way", "name": "Polindes Guntung Besar", "amenity": "clinic", "healthcare": null }, "geometry": { "type": "Point", "coordinates": [ 114.694400590848929, -3.811250576956521 ] } },
{ "type": "Feature", "properties": { "osm_id": 576513282, "osm_type": "way", "name": "Polindes Batiali", "amenity": "clinic", "healthcare": null }, "geometry": { "type": "Point", "coordinates": [ 114.700744525230618, -3.833085045573181 ] } },
{ "type": "Feature", "properties": { "osm_id": 577150893, "osm_type": "way", "name": "Puskesmas Jejangkit", "amenity": "clinic", "healthcare": null }, "geometry": { "type": "Point", "coordinates": [ 114.770635466648244, -3.177374964163465 ] } },
{ "type": "Feature", "properties": { "osm_id": 577312750, "osm_type": "way", "name": "POLINDES", "amenity": "clinic", "healthcare": null }, "geometry": { "type": "Point", "coordinates": [ 114.777153199995141, -3.762995950003881 ] } },
{ "type": "Feature", "properties": { "osm_id": 581608499, "osm_type": "way", "name": "Puskesmas Desa Damit", "amenity": "clinic", "healthcare": null }, "geometry": { "type": "Point", "coordinates": [ 114.91911090000194, -3.899477950000581 ] } },
{ "type": "Feature", "properties": { "osm_id": 581827563, "osm_type": "way", "name": "Bidan", "amenity": "doctors", "healthcare": null }, "geometry": { "type": "Point", "coordinates": [ 114.773733592967915, -3.636641370747848 ] } },
{ "type": "Feature", "properties": { "osm_id": 581864928, "osm_type": "way", "name": "POSYANDU DUSUN I", "amenity": "clinic", "healthcare": null }, "geometry": { "type": "Point", "coordinates": [ 114.838744797122317, -3.702976779209089 ] } },
{ "type": "Feature", "properties": { "osm_id": 581864931, "osm_type": "way", "name": "POLINDES DUSUN I", "amenity": "doctors", "healthcare": null }, "geometry": { "type": "Point", "coordinates": [ 114.838771822974891, -3.702815158453243 ] } },
{ "type": "Feature", "properties": { "osm_id": 581865932, "osm_type": "way", "name": "Pos Yandu Melati", "amenity": "clinic", "healthcare": null }, "geometry": { "type": "Point", "coordinates": [ 114.859613268391286, -3.710154303652592 ] } },
{ "type": "Feature", "properties": { "osm_id": 581866259, "osm_type": "way", "name": "Posyandu Mawar 1", "amenity": "clinic", "healthcare": null }, "geometry": { "type": "Point", "coordinates": [ 114.863302917963793, -3.723040960993184 ] } },
{ "type": "Feature", "properties": { "osm_id": 581866486, "osm_type": "way", "name": "Pos Bersalin Desa Tanjung Mawar 1", "amenity": "clinic", "healthcare": null }, "geometry": { "type": "Point", "coordinates": [ 114.856136099999006, -3.72719475000058 ] } },
{ "type": "Feature", "properties": { "osm_id": 581866760, "osm_type": "way", "name": "Posyandu Mawar 2", "amenity": "clinic", "healthcare": null }, "geometry": { "type": "Point", "coordinates": [ 114.853374500000768, -3.732225550001522 ] } },
{ "type": "Feature", "properties": { "osm_id": 581915840, "osm_type": "way", "name": "Poskesdes Lok Bangkai", "amenity": "clinic", "healthcare": null }, "geometry": { "type": "Point", "coordinates": [ 115.267343099999295, -2.417013550000273 ] } },
{ "type": "Feature", "properties": { "osm_id": 581927626, "osm_type": "way", "name": "Puskesmas Pembantu Sekayu Baru", "amenity": "clinic", "healthcare": null }, "geometry": { "type": "Point", "coordinates": [ 116.188137091361142, -2.308790640818256 ] } },
{ "type": "Feature", "properties": { "osm_id": 582355184, "osm_type": "way", "name": "Pustu Desa Pamalongan", "amenity": "clinic", "healthcare": null }, "geometry": { "type": "Point", "coordinates": [ 114.883341144471032, -3.825445376423324 ] } },
{ "type": "Feature", "properties": { "osm_id": 582367940, "osm_type": "way", "name": "PUSTU DESA BLURU", "amenity": "clinic", "healthcare": null }, "geometry": { "type": "Point", "coordinates": [ 114.839259246782703, -3.863895807938131 ] } },
{ "type": "Feature", "properties": { "osm_id": 587470962, "osm_type": "way", "name": "Poskesdes Hilir Mesjid", "amenity": "clinic", "healthcare": null }, "geometry": { "type": "Point", "coordinates": [ 114.509502787494384, -3.158789053054595 ] } },
{ "type": "Feature", "properties": { "osm_id": 579282344, "osm_type": "way", "name": "Poskesdes Buntu Pilanduk", "amenity": "clinic", "healthcare": null }, "geometry": { "type": "Point", "coordinates": [ 115.686182720082869, -2.316394939085721 ] } },
{ "type": "Feature", "properties": { "osm_id": 579303490, "osm_type": "way", "name": "Puskesmas Pembantu Desa Bumi Jaya", "amenity": "clinic", "healthcare": null }, "geometry": { "type": "Point", "coordinates": [ 114.79887681623029, -3.828079299082745 ] } },
{ "type": "Feature", "properties": { "osm_id": 579305905, "osm_type": "way", "name": "Klinik Ibunda", "amenity": "doctors", "healthcare": null }, "geometry": { "type": "Point", "coordinates": [ 114.818193646315819, -3.798550769374405 ] } },
{ "type": "Feature", "properties": { "osm_id": 654368875, "osm_type": "way", "name": "Pusat Kesehatan Desa (Poskesdes)", "amenity": "clinic", "healthcare": null }, "geometry": { "type": "Point", "coordinates": [ 114.794661874931379, -3.795163810073244 ] } },
{ "type": "Feature", "properties": { "osm_id": 654369858, "osm_type": "way", "name": "Posyandu Guntung Besar", "amenity": "clinic", "healthcare": null }, "geometry": { "type": "Point", "coordinates": [ 114.696089049999898, -3.813216050002131 ] } },
{ "type": "Feature", "properties": { "osm_id": 654379507, "osm_type": "way", "name": "Posyandu Mawar", "amenity": "clinic", "healthcare": null }, "geometry": { "type": "Point", "coordinates": [ 114.711233775993819, -3.790066857733699 ] } },
{ "type": "Feature", "properties": { "osm_id": 654379514, "osm_type": "way", "name": "Posyandu Bakti Kencana", "amenity": "clinic", "healthcare": null }, "geometry": { "type": "Point", "coordinates": [ 114.720379581423984, -3.821490638814023 ] } },
{ "type": "Feature", "properties": { "osm_id": 654381333, "osm_type": "way", "name": "Puskesmas Angsau", "amenity": "clinic", "healthcare": null }, "geometry": { "type": "Point", "coordinates": [ 114.782405269139616, -3.798722980155609 ] } },
{ "type": "Feature", "properties": { "osm_id": 654403785, "osm_type": "way", "name": "Puskesmas Tirta Jaya", "amenity": "clinic", "healthcare": null }, "geometry": { "type": "Point", "coordinates": [ 114.818234722816698, -3.798402607225396 ] } },
{ "type": "Feature", "properties": { "osm_id": 654615282, "osm_type": "way", "name": "Posyandu Anggrek/ Posbindu", "amenity": "clinic", "healthcare": null }, "geometry": { "type": "Point", "coordinates": [ 114.838058591970963, -3.770156229272428 ] } },
{ "type": "Feature", "properties": { "osm_id": 654617214, "osm_type": "way", "name": "Posyandu Melati", "amenity": "clinic", "healthcare": null }, "geometry": { "type": "Point", "coordinates": [ 114.867269404736362, -3.815675768329209 ] } },
{ "type": "Feature", "properties": { "osm_id": 654617580, "osm_type": "way", "name": "Polindes", "amenity": "clinic", "healthcare": null }, "geometry": { "type": "Point", "coordinates": [ 114.879779900000514, -3.902519450000907 ] } },
{ "type": "Feature", "properties": { "osm_id": 654617693, "osm_type": "way", "name": "POSYANDU TEBING SIRING", "amenity": "clinic", "healthcare": null }, "geometry": { "type": "Point", "coordinates": [ 114.85073019999956, -3.686237700000675 ] } },
{ "type": "Feature", "properties": { "osm_id": 654617694, "osm_type": "way", "name": "PUSTU DESA TEBING SIRING", "amenity": "clinic", "healthcare": null }, "geometry": { "type": "Point", "coordinates": [ 114.85108158534301, -3.685525485672539 ] } },
{ "type": "Feature", "properties": { "osm_id": 654619191, "osm_type": "way", "name": "Pustu Desa Pulau Sari", "amenity": "clinic", "healthcare": null }, "geometry": { "type": "Point", "coordinates": [ 114.706595799999079, -3.661938100001254 ] } },
{ "type": "Feature", "properties": { "osm_id": 654619193, "osm_type": "way", "name": "Polindes Pulau Sari", "amenity": "doctors", "healthcare": null }, "geometry": { "type": "Point", "coordinates": [ 114.686991399999968, -3.667738099999987 ] } },
{ "type": "Feature", "properties": { "osm_id": 580558866, "osm_type": "way", "name": "Posyandu Kenangan", "amenity": "clinic", "healthcare": null }, "geometry": { "type": "Point", "coordinates": [ 114.693006699999515, -3.774845199999989 ] } },
{ "type": "Feature", "properties": { "osm_id": 580808460, "osm_type": "way", "name": "Polindes Pamalongan", "amenity": "clinic", "healthcare": null }, "geometry": { "type": "Point", "coordinates": [ 114.880088136987681, -3.829542280206451 ] } },
{ "type": "Feature", "properties": { "osm_id": 581132919, "osm_type": "way", "name": "Pustu Desa Panjaratan", "amenity": "clinic", "healthcare": null }, "geometry": { "type": "Point", "coordinates": [ 114.695393334318226, -3.779951201836111 ] } },
{ "type": "Feature", "properties": { "osm_id": 654640562, "osm_type": "way", "name": "POLINDES DESA BLURU", "amenity": "doctors", "healthcare": null }, "geometry": { "type": "Point", "coordinates": [ 114.839061329851091, -3.864535190894095 ] } },
{ "type": "Feature", "properties": { "osm_id": 654640563, "osm_type": "way", "name": "POSYANDU", "amenity": "clinic", "healthcare": null }, "geometry": { "type": "Point", "coordinates": [ 114.839144649582352, -3.864331901690255 ] } },
{ "type": "Feature", "properties": { "osm_id": 654645534, "osm_type": "way", "name": "Posyandu Kintapura", "amenity": "clinic", "healthcare": "clinic" }, "geometry": { "type": "Point", "coordinates": [ 115.208222449999738, -3.859603850000281 ] } },
{ "type": "Feature", "properties": { "osm_id": 654649270, "osm_type": "way", "name": "Posyandu Desa Damit", "amenity": "clinic", "healthcare": null }, "geometry": { "type": "Point", "coordinates": [ 114.909259750534872, -3.900541866843931 ] } },
{ "type": "Feature", "properties": { "osm_id": 654651226, "osm_type": "way", "name": "Klinik Mitra Sehat", "amenity": "clinic", "healthcare": null }, "geometry": { "type": "Point", "coordinates": [ 115.086265482740757, -3.903470907143653 ] } },
{ "type": "Feature", "properties": { "osm_id": 654651228, "osm_type": "way", "name": "Polindes Simpang Empat Sungai Baru", "amenity": "clinic", "healthcare": null }, "geometry": { "type": "Point", "coordinates": [ 115.101099899998417, -3.917407250002042 ] } },
{ "type": "Feature", "properties": { "osm_id": 654651229, "osm_type": "way", "name": "Puskesmas Asam-asam", "amenity": "clinic", "healthcare": null }, "geometry": { "type": "Point", "coordinates": [ 115.091137684289578, -3.90128175600138 ] } },
{ "type": "Feature", "properties": { "osm_id": 654849884, "osm_type": "way", "name": "Pustu Desa Sungai Riam", "amenity": "clinic", "healthcare": null }, "geometry": { "type": "Point", "coordinates": [ 114.730061157697932, -3.876596130548423 ] } },
{ "type": "Feature", "properties": { "osm_id": 654852194, "osm_type": "way", "name": "Posyandu RW 4", "amenity": "clinic", "healthcare": null }, "geometry": { "type": "Point", "coordinates": [ 114.69919327701426, -3.609717415357878 ] } },
{ "type": "Feature", "properties": { "osm_id": 654853996, "osm_type": "way", "name": "Puskemas Pembantu", "amenity": "clinic", "healthcare": null }, "geometry": { "type": "Point", "coordinates": [ 114.629836744720194, -3.973948178466033 ] } },
{ "type": "Feature", "properties": { "osm_id": 663186591, "osm_type": "way", "name": "Puskesmas Pembantu Keliling Benteng Ilir", "amenity": "clinic", "healthcare": null }, "geometry": { "type": "Point", "coordinates": [ 114.763983642839136, -3.310132912142395 ] } },
{ "type": "Feature", "properties": { "osm_id": 587470967, "osm_type": "way", "name": "Puskesmas Rawat Inap Anjir Pasar", "amenity": "clinic", "healthcare": "clinic" }, "geometry": { "type": "Point", "coordinates": [ 114.501997914711183, -3.150511124737383 ] } },
{ "type": "Feature", "properties": { "osm_id": 625309400, "osm_type": "way", "name": "Dr. Bambang", "amenity": "dentist", "healthcare": "dentist" }, "geometry": { "type": "Point", "coordinates": [ 115.385889419415804, -2.58175988927243 ] } },
{ "type": "Feature", "properties": { "osm_id": 654368561, "osm_type": "way", "name": "PusKesDes Tampang", "amenity": "clinic", "healthcare": null }, "geometry": { "type": "Point", "coordinates": [ 114.789807833745883, -3.840147255038139 ] } },
{ "type": "Feature", "properties": { "osm_id": 1192037520, "osm_type": "way", "name": "Poskesdes Kalintamui", "amenity": "clinic", "healthcare": null }, "geometry": { "type": "Point", "coordinates": [ 115.307720266665939, -2.407599441530798 ] } },
{ "type": "Feature", "properties": { "osm_id": 1192037535, "osm_type": "way", "name": "Poskesdes Rantawan", "amenity": "clinic", "healthcare": null }, "geometry": { "type": "Point", "coordinates": [ 115.233195217091662, -2.455332451736589 ] } },
{ "type": "Feature", "properties": { "osm_id": 1237132055, "osm_type": "way", "name": "Puskesmas Cintapuri", "amenity": "clinic", "healthcare": null }, "geometry": { "type": "Point", "coordinates": [ 115.007973315916203, -3.215282724117957 ] } },
{ "type": "Feature", "properties": { "osm_id": 986583000, "osm_type": "way", "name": "Puskesmas Jaro", "amenity": "clinic", "healthcare": null }, "geometry": { "type": "Point", "coordinates": [ 115.636552476940338, -1.835640333468209 ] } },
{ "type": "Feature", "properties": { "osm_id": 993809998, "osm_type": "way", "name": "Puskesmas Bakarangan", "amenity": "clinic", "healthcare": null }, "geometry": { "type": "Point", "coordinates": [ 115.122082164768429, -2.922782064959147 ] } },
{ "type": "Feature", "properties": { "osm_id": 995118581, "osm_type": "way", "name": "Puskesmas Pandahan", "amenity": "clinic", "healthcare": null }, "geometry": { "type": "Point", "coordinates": [ 115.076224249998816, -2.931692250001239 ] } },
{ "type": "Feature", "properties": { "osm_id": 998151867, "osm_type": "way", "name": "Puskesmas Pembantu Sungai Tabukan", "amenity": "clinic", "healthcare": null }, "geometry": { "type": "Point", "coordinates": [ 115.1999974999991, -2.454606449999918 ] } },
{ "type": "Feature", "properties": { "osm_id": 998151872, "osm_type": "way", "name": "Poskesdes Rantau Bujur Hilir", "amenity": "clinic", "healthcare": null }, "geometry": { "type": "Point", "coordinates": [ 115.164178569003568, -2.44714904435375 ] } },
{ "type": "Feature", "properties": { "osm_id": 998151873, "osm_type": "way", "name": "Poskesdes Gampa Raya", "amenity": "clinic", "healthcare": null }, "geometry": { "type": "Point", "coordinates": [ 115.180919249998453, -2.435286949999928 ] } },
{ "type": "Feature", "properties": { "osm_id": 998151874, "osm_type": "way", "name": "Puskesmas Pembantu Rantau Bujur Hulu", "amenity": "clinic", "healthcare": null }, "geometry": { "type": "Point", "coordinates": [ 115.173476950805593, -2.443259917054966 ] } },
{ "type": "Feature", "properties": { "osm_id": 998332221, "osm_type": "way", "name": "Puskesmas Guntung", "amenity": "clinic", "healthcare": null }, "geometry": { "type": "Point", "coordinates": [ 115.31089853221394, -2.351573181535918 ] } },
{ "type": "Feature", "properties": { "osm_id": 1018760531, "osm_type": "way", "name": "RSUD Abdul Aziz", "amenity": "hospital", "healthcare": "hospital" }, "geometry": { "type": "Point", "coordinates": [ 114.760858886386927, -2.980582909258231 ] } },
{ "type": "Feature", "properties": { "osm_id": 1029927337, "osm_type": "way", "name": "RS TNI AU Syamsudin Noor", "amenity": "hospital", "healthcare": "hospital" }, "geometry": { "type": "Point", "coordinates": [ 114.744740109858981, -3.444737829125053 ] } },
{ "type": "Feature", "properties": { "osm_id": 1030080433, "osm_type": "way", "name": "Puskesmas Kertak Hanyar", "amenity": "clinic", "healthcare": "clinic" }, "geometry": { "type": "Point", "coordinates": [ 114.629431049994736, -3.355238749998314 ] } },
{ "type": "Feature", "properties": { "osm_id": 1387923174, "osm_type": "way", "name": "Poskesdes Samuda", "amenity": "clinic", "healthcare": null }, "geometry": { "type": "Point", "coordinates": [ 114.616049642025587, -3.11988016785614 ] } },
{ "type": "Feature", "properties": { "osm_id": 1270665933, "osm_type": "way", "name": "Klinik", "amenity": "clinic", "healthcare": null }, "geometry": { "type": "Point", "coordinates": [ 115.080650949999921, -2.940361550000904 ] } },
{ "type": "Feature", "properties": { "osm_id": 1267036533, "osm_type": "way", "name": "Puskesmas", "amenity": "clinic", "healthcare": null }, "geometry": { "type": "Point", "coordinates": [ 115.175765349995771, -3.040696350000507 ] } },
{ "type": "Feature", "properties": { "osm_id": 1266029355, "osm_type": "way", "name": "Puskesmas", "amenity": "clinic", "healthcare": null }, "geometry": { "type": "Point", "coordinates": [ 115.172372683003388, -2.995473257602344 ] } },
{ "type": "Feature", "properties": { "osm_id": 1250304165, "osm_type": "way", "name": "Poskesdes Rantau Bujur", "amenity": "clinic", "healthcare": null }, "geometry": { "type": "Point", "coordinates": [ 115.24172994999978, -3.007794700000732 ] } },
{ "type": "Feature", "properties": { "osm_id": 1367354741, "osm_type": "way", "name": "Rumah Sakit Islam Sultan Agung Banjarbaru", "amenity": "hospital", "healthcare": "hospital" }, "geometry": { "type": "Point", "coordinates": [ 114.699050888774678, -3.43114829039741 ] } },
{ "type": "Feature", "properties": { "osm_id": 3292346095, "osm_type": "node", "name": "Puskesmas Batulicin", "amenity": "clinic", "healthcare": null }, "geometry": { "type": "Point", "coordinates": [ 116.0043826, -3.4485993 ] } },
{ "type": "Feature", "properties": { "osm_id": 1805714685, "osm_type": "node", "name": "Polindes Batilai", "amenity": "hospital", "healthcare": null }, "geometry": { "type": "Point", "coordinates": [ 114.700756700000014, -3.833116 ] } },
{ "type": "Feature", "properties": { "osm_id": 1805714686, "osm_type": "node", "name": "Polindes", "amenity": "hospital", "healthcare": null }, "geometry": { "type": "Point", "coordinates": [ 114.6272385, -3.672333 ] } },
{ "type": "Feature", "properties": { "osm_id": 1805714687, "osm_type": "node", "name": "Polindes", "amenity": "hospital", "healthcare": null }, "geometry": { "type": "Point", "coordinates": [ 114.7680436, -3.9496757 ] } },
{ "type": "Feature", "properties": { "osm_id": 1805714697, "osm_type": "node", "name": "Poskes", "amenity": "hospital", "healthcare": null }, "geometry": { "type": "Point", "coordinates": [ 114.678940499999982, -4.0557598 ] } },
{ "type": "Feature", "properties": { "osm_id": 1805714699, "osm_type": "node", "name": "Puskesmas Batalang", "amenity": "clinic", "healthcare": "clinic" }, "geometry": { "type": "Point", "coordinates": [ 114.923623, -3.9182834 ] } },
{ "type": "Feature", "properties": { "osm_id": 1805714700, "osm_type": "node", "name": "Puskesmas Batu Ampar", "amenity": "hospital", "healthcare": null }, "geometry": { "type": "Point", "coordinates": [ 114.8234351, -3.8844019 ] } },
{ "type": "Feature", "properties": { "osm_id": 1805714701, "osm_type": "node", "name": "Puskesmas Jorong", "amenity": "clinic", "healthcare": "clinic" }, "geometry": { "type": "Point", "coordinates": [ 114.925273100000013, -3.9746866 ] } },
{ "type": "Feature", "properties": { "osm_id": 1805714705, "osm_type": "node", "name": "Puskesmas Takisung", "amenity": "hospital", "healthcare": null }, "geometry": { "type": "Point", "coordinates": [ 114.6602943, -3.8776514 ] } },
{ "type": "Feature", "properties": { "osm_id": 1805714707, "osm_type": "node", "name": "Puskesmas Takisung", "amenity": "hospital", "healthcare": null }, "geometry": { "type": "Point", "coordinates": [ 114.7205618, -3.9609967 ] } },
{ "type": "Feature", "properties": { "osm_id": 1805714710, "osm_type": "node", "name": "Puskesmas Trans 200", "amenity": "hospital", "healthcare": null }, "geometry": { "type": "Point", "coordinates": [ 114.9733825, -3.9777643 ] } },
{ "type": "Feature", "properties": { "osm_id": 1805714719, "osm_type": "node", "name": "Puskesmas Kurau", "amenity": "hospital", "healthcare": null }, "geometry": { "type": "Point", "coordinates": [ 114.6192349, -3.5926725 ] } },
{ "type": "Feature", "properties": { "osm_id": 1805714720, "osm_type": "node", "name": "Pustu Asam-Asam", "amenity": "hospital", "healthcare": null }, "geometry": { "type": "Point", "coordinates": [ 115.0809669, -3.930471 ] } },
{ "type": "Feature", "properties": { "osm_id": 1805714722, "osm_type": "node", "name": "Pustu Gunung Makmur", "amenity": "clinic", "healthcare": null }, "geometry": { "type": "Point", "coordinates": [ 114.6465837, -3.8861568 ] } },
{ "type": "Feature", "properties": { "osm_id": 9840186844, "osm_type": "node", "name": "Dr Edi Hartoyo Sp A", "amenity": "doctors", "healthcare": "doctor" }, "geometry": { "type": "Point", "coordinates": [ 114.610202799999982, -3.334529 ] } },
{ "type": "Feature", "properties": { "osm_id": 9840424343, "osm_type": "node", "name": "Dokter Gigi Buyung Maglenda", "amenity": "doctors", "healthcare": "doctor" }, "geometry": { "type": "Point", "coordinates": [ 114.6179429, -3.3298525 ] } },
{ "type": "Feature", "properties": { "osm_id": 9840429253, "osm_type": "node", "name": "Tukang Gigi Wisen", "amenity": "dentist", "healthcare": "dentist" }, "geometry": { "type": "Point", "coordinates": [ 114.5957414, -3.3240535 ] } },
{ "type": "Feature", "properties": { "osm_id": 9842933236, "osm_type": "node", "name": "Amanda Estetika", "amenity": "doctors", "healthcare": "doctor" }, "geometry": { "type": "Point", "coordinates": [ 114.598712, -3.3260067 ] } },
{ "type": "Feature", "properties": { "osm_id": 9843315760, "osm_type": "node", "name": "Praktek Dokter Dr. Iskandar Halim Sp.A", "amenity": "doctors", "healthcare": "doctor" }, "geometry": { "type": "Point", "coordinates": [ 114.5976841, -3.3134051 ] } },
{ "type": "Feature", "properties": { "osm_id": 12387516782, "osm_type": "node", "name": "Puskesmas Kayutangi", "amenity": "clinic", "healthcare": null }, "geometry": { "type": "Point", "coordinates": [ 114.5951097, -3.2911273 ] } },
{ "type": "Feature", "properties": { "osm_id": 12455972155, "osm_type": "node", "name": "Poskesdes Desa Tamiang", "amenity": "hospital", "healthcare": "hospital" }, "geometry": { "type": "Point", "coordinates": [ 116.2961199, -2.4314459 ] } },
{ "type": "Feature", "properties": { "osm_id": 12479859084, "osm_type": "node", "name": "Puskesmas Margasari", "amenity": "clinic", "healthcare": null }, "geometry": { "type": "Point", "coordinates": [ 114.9292673, -2.8753288 ] } },
{ "type": "Feature", "properties": { "osm_id": 12480067102, "osm_type": "node", "name": "Poskesdes Nateh", "amenity": "clinic", "healthcare": null }, "geometry": { "type": "Point", "coordinates": [ 115.55844110000001, -2.52325 ] } },
{ "type": "Feature", "properties": { "osm_id": 12712311179, "osm_type": "node", "name": "Rumah Sakit Umum Nirwana", "amenity": "hospital", "healthcare": "hospital" }, "geometry": { "type": "Point", "coordinates": [ 114.840418900000017, -3.4391909 ] } },
{ "type": "Feature", "properties": { "osm_id": 13508084439, "osm_type": "node", "name": null, "amenity": "hospital", "healthcare": "hospital" }, "geometry": { "type": "Point", "coordinates": [ 115.872242, -2.9527354 ] } },
{ "type": "Feature", "properties": { "osm_id": 13508131561, "osm_type": "node", "name": null, "amenity": "hospital", "healthcare": "hospital" }, "geometry": { "type": "Point", "coordinates": [ 115.869512400000019, -2.9506456 ] } },
{ "type": "Feature", "properties": { "osm_id": 14001684201, "osm_type": "node", "name": "Rumah Sakit Siloam Banjarmasin", "amenity": "hospital", "healthcare": null }, "geometry": { "type": "Point", "coordinates": [ 114.6049013, -3.3260434 ] } },
{ "type": "Feature", "properties": { "osm_id": 6697419509, "osm_type": "node", "name": "Klinik Hafisa Dahlia", "amenity": "clinic", "healthcare": "doctor+pharmacy" }, "geometry": { "type": "Point", "coordinates": [ 114.5828322, -3.3276498 ] } },
{ "type": "Feature", "properties": { "osm_id": 6776387672, "osm_type": "node", "name": "Balai Pengobatan Advent", "amenity": "clinic", "healthcare": "clinic" }, "geometry": { "type": "Point", "coordinates": [ 114.5743362, -3.3222028 ] } },
{ "type": "Feature", "properties": { "osm_id": 7161494192, "osm_type": "node", "name": "Klinik Cahaya Imani", "amenity": "clinic", "healthcare": null }, "geometry": { "type": "Point", "coordinates": [ 115.2720349, -2.7786001 ] } },
{ "type": "Feature", "properties": { "osm_id": 7227739112, "osm_type": "node", "name": "Darplastic", "amenity": "clinic", "healthcare": "clinic" }, "geometry": { "type": "Point", "coordinates": [ 114.608314099999987, -3.3009765 ] } },
{ "type": "Feature", "properties": { "osm_id": 7227739113, "osm_type": "node", "name": "Matta", "amenity": "clinic", "healthcare": "clinic" }, "geometry": { "type": "Point", "coordinates": [ 114.6082735, -3.3009273 ] } },
{ "type": "Feature", "properties": { "osm_id": 7353571531, "osm_type": "node", "name": null, "amenity": "doctors", "healthcare": "doctor" }, "geometry": { "type": "Point", "coordinates": [ 114.597732799999989, -3.3266733 ] } },
{ "type": "Feature", "properties": { "osm_id": 8491745287, "osm_type": "node", "name": "Klinik Utama Rawat Jalan Sutoyo Medika", "amenity": "clinic", "healthcare": "clinic" }, "geometry": { "type": "Point", "coordinates": [ 114.5779774, -3.3214301 ] } },
{ "type": "Feature", "properties": { "osm_id": 8838727860, "osm_type": "node", "name": "Klinik Praktama Asri", "amenity": "clinic", "healthcare": "clinic" }, "geometry": { "type": "Point", "coordinates": [ 114.805781199999984, -3.4482413 ] } },
{ "type": "Feature", "properties": { "osm_id": 8948722695, "osm_type": "node", "name": "Eks RSJ Tamban", "amenity": "hospital", "healthcare": null }, "geometry": { "type": "Point", "coordinates": [ 114.4973525, -3.3386635 ] } },
{ "type": "Feature", "properties": { "osm_id": 9023149189, "osm_type": "node", "name": "LMMC", "amenity": "clinic", "healthcare": "clinic" }, "geometry": { "type": "Point", "coordinates": [ 114.8443635, -3.4436263 ] } },
{ "type": "Feature", "properties": { "osm_id": 9023149192, "osm_type": "node", "name": "RS Mawar", "amenity": "hospital", "healthcare": "hospital" }, "geometry": { "type": "Point", "coordinates": [ 114.8380571, -3.4387948 ] } },
{ "type": "Feature", "properties": { "osm_id": 9041116522, "osm_type": "node", "name": "RSU Syifa Medika", "amenity": "hospital", "healthcare": "hospital" }, "geometry": { "type": "Point", "coordinates": [ 114.8165312, -3.4583279 ] } },
{ "type": "Feature", "properties": { "osm_id": 9050193988, "osm_type": "node", "name": "RSU Al-Mansyur Medika", "amenity": "hospital", "healthcare": "hospital" }, "geometry": { "type": "Point", "coordinates": [ 114.84806540000001, -3.4418648 ] } },
{ "type": "Feature", "properties": { "osm_id": 9619867242, "osm_type": "node", "name": "RSUD Hadji Boejasin", "amenity": "hospital", "healthcare": "hospital" }, "geometry": { "type": "Point", "coordinates": [ 114.7865236, -3.8279905 ] } },
{ "type": "Feature", "properties": { "osm_id": 4768959846, "osm_type": "node", "name": "Poskesdes Paran", "amenity": "clinic", "healthcare": null }, "geometry": { "type": "Point", "coordinates": [ 115.507644099999979, -2.3089565 ] } },
{ "type": "Feature", "properties": { "osm_id": 4769013070, "osm_type": "node", "name": "Puskesmas Halong", "amenity": "clinic", "healthcare": null }, "geometry": { "type": "Point", "coordinates": [ 115.655277, -2.2636756 ] } },
{ "type": "Feature", "properties": { "osm_id": 4770471294, "osm_type": "node", "name": "Puskesmas Danau Panggang", "amenity": "clinic", "healthcare": null }, "geometry": { "type": "Point", "coordinates": [ 115.10514790000002, -2.4638464 ] } },
{ "type": "Feature", "properties": { "osm_id": 4770573517, "osm_type": "node", "name": "Puskesmas Pembantu Sungai Luang Hilir", "amenity": "clinic", "healthcare": null }, "geometry": { "type": "Point", "coordinates": [ 115.120012, -2.51 ] } },
{ "type": "Feature", "properties": { "osm_id": 4998866648, "osm_type": "node", "name": "Poskesdes Kambitin Raya", "amenity": "clinic", "healthcare": null }, "geometry": { "type": "Point", "coordinates": [ 115.3716896, -2.0743922 ] } },
{ "type": "Feature", "properties": { "osm_id": 5005217239, "osm_type": "node", "name": "Puskesmas Angkinang", "amenity": "clinic", "healthcare": null }, "geometry": { "type": "Point", "coordinates": [ 115.2934778, -2.7294183 ] } },
{ "type": "Feature", "properties": { "osm_id": 5021278655, "osm_type": "node", "name": "UPT Puskesmas Sungai Tabuk 3", "amenity": "clinic", "healthcare": "clinic" }, "geometry": { "type": "Point", "coordinates": [ 114.632442, -3.3135147 ] } },
{ "type": "Feature", "properties": { "osm_id": 5021278671, "osm_type": "node", "name": "Puskesmas Pembantu Gardu Mekar Indah", "amenity": "clinic", "healthcare": "clinic" }, "geometry": { "type": "Point", "coordinates": [ 114.6266592, -3.3204968 ] } },
{ "type": "Feature", "properties": { "osm_id": 5154841223, "osm_type": "node", "name": "Rumah Dokter Silahuddin", "amenity": "doctors", "healthcare": "doctor" }, "geometry": { "type": "Point", "coordinates": [ 115.154001500000021, -2.9258437 ] } },
{ "type": "Feature", "properties": { "osm_id": 5172232321, "osm_type": "node", "name": "Puskesmas Baruh Jaya", "amenity": "doctors", "healthcare": null }, "geometry": { "type": "Point", "coordinates": [ 115.0838521, -2.6342181 ] } },
{ "type": "Feature", "properties": { "osm_id": 5548115614, "osm_type": "node", "name": "Poskesdes Hauwai", "amenity": "clinic", "healthcare": null }, "geometry": { "type": "Point", "coordinates": [ 115.6728561, -2.2443784 ] } },
{ "type": "Feature", "properties": { "osm_id": 6071013085, "osm_type": "node", "name": "RS. TNI AU Syamsudin Noor", "amenity": "hospital", "healthcare": null }, "geometry": { "type": "Point", "coordinates": [ 114.7443104, -3.4447362 ] } },
{ "type": "Feature", "properties": { "osm_id": 6612716203, "osm_type": "node", "name": "Puskesmas", "amenity": "clinic", "healthcare": "clinic" }, "geometry": { "type": "Point", "coordinates": [ 114.5874277, -3.3234373 ] } },
{ "type": "Feature", "properties": { "osm_id": 6697394360, "osm_type": "node", "name": "Posyandu", "amenity": "clinic", "healthcare": "clinic" }, "geometry": { "type": "Point", "coordinates": [ 114.5887714, -3.3152351 ] } },
{ "type": "Feature", "properties": { "osm_id": 6697394382, "osm_type": "node", "name": null, "amenity": "dentist", "healthcare": "dentist" }, "geometry": { "type": "Point", "coordinates": [ 114.583573, -3.3208257 ] } },
{ "type": "Feature", "properties": { "osm_id": 6697419508, "osm_type": "node", "name": null, "amenity": "doctors", "healthcare": "midwife" }, "geometry": { "type": "Point", "coordinates": [ 114.582987700000018, -3.3282917 ] } },
{ "type": "Feature", "properties": { "osm_id": 3306022165, "osm_type": "node", "name": "Puskesmas Sebamban 2", "amenity": "clinic", "healthcare": null }, "geometry": { "type": "Point", "coordinates": [ 115.604231, -3.714697 ] } },
{ "type": "Feature", "properties": { "osm_id": 3559317951, "osm_type": "node", "name": "Poskesdes Pangi", "amenity": "clinic", "healthcare": null }, "geometry": { "type": "Point", "coordinates": [ 115.4293319, -2.0737438 ] } },
{ "type": "Feature", "properties": { "osm_id": 3610260145, "osm_type": "node", "name": "Puskesmas Dalam Pagar", "amenity": "clinic", "healthcare": "clinic" }, "geometry": { "type": "Point", "coordinates": [ 114.8413053, -3.3887278 ] } },
{ "type": "Feature", "properties": { "osm_id": 3612249028, "osm_type": "node", "name": "Puskesmas Sungai Jingah", "amenity": "clinic", "healthcare": "clinic" }, "geometry": { "type": "Point", "coordinates": [ 114.6033422, -3.3087605 ] } },
{ "type": "Feature", "properties": { "osm_id": 3646971058, "osm_type": "node", "name": "Puskesmas Mabuun", "amenity": "clinic", "healthcare": null }, "geometry": { "type": "Point", "coordinates": [ 115.4149777, -2.1708847 ] } },
{ "type": "Feature", "properties": { "osm_id": 3938979543, "osm_type": "node", "name": "Puskesmas Pagatan", "amenity": "clinic", "healthcare": "clinic" }, "geometry": { "type": "Point", "coordinates": [ 115.9273662, -3.6081471 ] } },
{ "type": "Feature", "properties": { "osm_id": 4229591586, "osm_type": "node", "name": "Puskesmas Nagara", "amenity": "clinic", "healthcare": null }, "geometry": { "type": "Point", "coordinates": [ 115.1072421, -2.6285889 ] } },
{ "type": "Feature", "properties": { "osm_id": 4229591587, "osm_type": "node", "name": "RSUD Daha Sejahtera", "amenity": "hospital", "healthcare": null }, "geometry": { "type": "Point", "coordinates": [ 115.118679, -2.6360242 ] } },
{ "type": "Feature", "properties": { "osm_id": 4229649122, "osm_type": "node", "name": "Puskesmas Kandangan", "amenity": "clinic", "healthcare": null }, "geometry": { "type": "Point", "coordinates": [ 115.2650314, -2.7763905 ] } },
{ "type": "Feature", "properties": { "osm_id": 4229649123, "osm_type": "node", "name": "Puskesmas Pembantu Bangkau", "amenity": "clinic", "healthcare": null }, "geometry": { "type": "Point", "coordinates": [ 115.1983275, -2.6810255 ] } },
{ "type": "Feature", "properties": { "osm_id": 4428325296, "osm_type": "node", "name": "dr. Suka Dwi Rahardja, Sp.PA", "amenity": "doctors", "healthcare": null }, "geometry": { "type": "Point", "coordinates": [ 114.8367126, -3.4527694 ] } },
{ "type": "Feature", "properties": { "osm_id": 4429998289, "osm_type": "node", "name": "RSB AINUN", "amenity": "clinic", "healthcare": null }, "geometry": { "type": "Point", "coordinates": [ 114.7600718, -3.8078783 ] } },
{ "type": "Feature", "properties": { "osm_id": 4733442856, "osm_type": "node", "name": "Poskesdes Badalungga", "amenity": "clinic", "healthcare": null }, "geometry": { "type": "Point", "coordinates": [ 115.5450476, -2.4111451 ] } },
{ "type": "Feature", "properties": { "osm_id": 4765879346, "osm_type": "node", "name": "Poskesdes Batang Banyu", "amenity": "clinic", "healthcare": null }, "geometry": { "type": "Point", "coordinates": [ 115.2714412, -2.3531769 ] } },
{ "type": "Feature", "properties": { "osm_id": 3298163325, "osm_type": "node", "name": "Poskesdes Betung", "amenity": "clinic", "healthcare": null }, "geometry": { "type": "Point", "coordinates": [ 116.2144444, -3.4421407 ] } },
{ "type": "Feature", "properties": { "osm_id": 3298183086, "osm_type": "node", "name": "RSUD Kotabaru", "amenity": "hospital", "healthcare": "hospital" }, "geometry": { "type": "Point", "coordinates": [ 116.2144342, -3.2520185 ] } },
{ "type": "Feature", "properties": { "osm_id": 3304166559, "osm_type": "node", "name": "RSUD dr. Andi Abdurrahman Noor", "amenity": "hospital", "healthcare": null }, "geometry": { "type": "Point", "coordinates": [ 115.9585067, -3.5220511 ] } },
{ "type": "Feature", "properties": { "osm_id": 4766205743, "osm_type": "node", "name": "Poskesdes Keramat", "amenity": "clinic", "healthcare": null }, "geometry": { "type": "Point", "coordinates": [ 115.225708900000015, -2.4570715 ] } },
{ "type": "Feature", "properties": { "osm_id": 1805714725, "osm_type": "node", "name": "Pustu Takisunfg", "amenity": "hospital", "healthcare": null }, "geometry": { "type": "Point", "coordinates": [ 114.6105347, -3.8706351 ] } },
{ "type": "Feature", "properties": { "osm_id": 1805714726, "osm_type": "node", "name": "Pustu Tungkaran", "amenity": "hospital", "healthcare": null }, "geometry": { "type": "Point", "coordinates": [ 114.6917931, -3.7623321 ] } },
{ "type": "Feature", "properties": { "osm_id": 1805714727, "osm_type": "node", "name": "Pustu Ujung Batu", "amenity": "hospital", "healthcare": null }, "geometry": { "type": "Point", "coordinates": [ 114.69423980000002, -3.7465473 ] } },
{ "type": "Feature", "properties": { "osm_id": 1805714728, "osm_type": "node", "name": "Pustu", "amenity": "hospital", "healthcare": null }, "geometry": { "type": "Point", "coordinates": [ 114.8061774, -3.6237572 ] } },
{ "type": "Feature", "properties": { "osm_id": 1805714729, "osm_type": "node", "name": "Pustu", "amenity": "hospital", "healthcare": null }, "geometry": { "type": "Point", "coordinates": [ 114.850782100000018, -3.6854268 ] } },
{ "type": "Feature", "properties": { "osm_id": 2528862499, "osm_type": "node", "name": "RSUD Pembalah Batung", "amenity": "hospital", "healthcare": "hospital" }, "geometry": { "type": "Point", "coordinates": [ 115.254842100000019, -2.4175853 ] } },
{ "type": "Feature", "properties": { "osm_id": 2541463532, "osm_type": "node", "name": "Puskesmas Banua Lawas", "amenity": "hospital", "healthcare": null }, "geometry": { "type": "Point", "coordinates": [ 115.2770991, -2.3209739 ] } },
{ "type": "Feature", "properties": { "osm_id": 3164269982, "osm_type": "node", "name": "Puskesmas Sungai Tiung", "amenity": "clinic", "healthcare": null }, "geometry": { "type": "Point", "coordinates": [ 114.838967400000016, -3.5016287 ] } },
{ "type": "Feature", "properties": { "osm_id": 3178229099, "osm_type": "node", "name": "RS Pelita Insani", "amenity": "hospital", "healthcare": "hospital" }, "geometry": { "type": "Point", "coordinates": [ 114.8515705, -3.4235825 ] } },
{ "type": "Feature", "properties": { "osm_id": 3280635065, "osm_type": "node", "name": "Poskesdes Gunung Besar", "amenity": "clinic", "healthcare": null }, "geometry": { "type": "Point", "coordinates": [ 116.007776600000014, -3.3672757 ] } },
{ "type": "Feature", "properties": { "osm_id": 3285383091, "osm_type": "node", "name": "Puskesmas Batulicin 1", "amenity": "clinic", "healthcare": null }, "geometry": { "type": "Point", "coordinates": [ 115.930609799999985, -3.3428348 ] } },
{ "type": "Feature", "properties": { "osm_id": 1805714723, "osm_type": "node", "name": "Pustu Panggung Baru", "amenity": "hospital", "healthcare": null }, "geometry": { "type": "Point", "coordinates": [ 114.728084700000011, -3.7413528 ] } },
{ "type": "Feature", "properties": { "osm_id": 1805714724, "osm_type": "node", "name": "Pustu Pantai Linuh", "amenity": "hospital", "healthcare": null }, "geometry": { "type": "Point", "coordinates": [ 114.8461999, -3.848158 ] } }
]
}
